{"type":"FeatureCollection","features":[{"type":"Feature","properties":{"project_id":"prov-ral-d3997-sebayeng-gamoswedi","source":"OpenStreetMap way ids 534110633, 595553702, 595556889, 595556891, 595556895, 595625939, 595927779, 595927780, 595927787, 754871404, 754873593, 754927221, 754927222, 765465825, 765465826, 1175277221, 1175277222, 1443952080 (\u00a9 OpenStreetMap contributors, ODbL; data as of 2026-10-02)","note":"OSM road ref D3997, drawn in full from its junction with D844 at Sebayeng to its junction with D617, which matches the project's endpoints 'Sebayeng (D844) to Ga-Moswedi (D617)'. The spur D3997A is not included."},"geometry":{"type":"LineString","coordinates":[[29.68195,-23.77202],[29.68912,-23.76771],[29.69184,-23.76887],[29.69459,-23.76685],[29.69655,-23.76606],[29.70936,-23.76545],[29.71192,-23.76504],[29.72755,-23.75917],[29.73138,-23.75866],[29.74282,-23.75558],[29.74768,-23.75463],[29.75321,-23.75291],[29.75478,-23.75263],[29.75709,-23.75425],[29.75841,-23.75352],[29.76138,-23.7529],[29.76629,-23.75005],[29.76796,-23.74993],[29.77753,-23.75213],[29.78595,-23.75692],[29.7864,-23.76005],[29.78759,-23.76174],[29.78945,-23.76234],[29.78979,-23.76453],[29.79192,-23.76673],[29.79249,-23.77106],[29.7934,-23.7729],[29.79737,-23.77657],[29.81202,-23.78593],[29.81323,-23.78763],[29.81352,-23.7896],[29.81308,-23.79115],[29.8116,-23.79328],[29.80893,-23.79604],[29.806,-23.79817],[29.80253,-23.80326],[29.80053,-23.80524],[29.80043,-23.80579],[29.79615,-23.80791],[29.79046,-23.81361],[29.78256,-23.83461],[29.78014,-23.83777],[29.77266,-23.84459],[29.77106,-23.84691],[29.77018,-23.84968],[29.77024,-23.85255],[29.77418,-23.86531]]}},{"type":"Feature","properties":{"project_id":"prov-ral-d844-mankweng-sebayeng","source":"OpenStreetMap way ids 258032639, 758704183, 758704184, 758704185, 758704186, 765433020, 765433021 (\u00a9 OpenStreetMap contributors, ODbL; data as of 2026-10-02)","note":"OSM road ref D844, clipped from its junction with D617 in Mankweng north to its junction with D3997 in Sebayeng. The project says 'Mankweng to Sebayeng' but gives no chainage, so the end points are an interpretation: D844 continues north of Sebayeng towards the R81."},"geometry":{"type":"LineString","coordinates":[[29.70789,-23.88366],[29.70603,-23.87125],[29.70622,-23.8691],[29.72087,-23.83365],[29.72133,-23.83129],[29.72114,-23.82841],[29.7195,-23.82468],[29.68195,-23.77202]]}},{"type":"Feature","properties":{"project_id":"prov-ral-d3959-dikgale-regravel","source":"OpenStreetMap way ids 595556890, 595625167, 754895903 (\u00a9 OpenStreetMap contributors, ODbL; data as of 2026-10-02)","note":"OSM road ref D3959: the whole of the road as mapped in OSM, from D3997 near Sebayeng south-east past Mantheding (Ga-Dikgale) to D4019. The Polokwane Final IDP 2025/26 (p.641) lists the 'arterial road Sebayeng Mantheding to Ga-Dikgale' as D3959-D3997, which matches this road. The regravelled section is not stated, so the whole mapped road is drawn. OSM tags most of it as asphalt and the last 1.5 km as unpaved; the asphalt may come from that later municipal upgrading."},"geometry":{"type":"LineString","coordinates":[[29.72181,-23.76117],[29.72507,-23.76285],[29.72719,-23.76508],[29.73314,-23.76804],[29.73681,-23.77188],[29.73849,-23.77305],[29.74376,-23.78031],[29.74851,-23.79042]]}},{"type":"Feature","properties":{"project_id":"prov-ral-d3339-makotopong-mothiba","source":"OpenStreetMap way ids 373671151, 373671207, 373851984, 373852022, 547738690, 758697445, 758697446, 1175273006, 1421968721 (\u00a9 OpenStreetMap contributors, ODbL; data as of 2026-10-02)","note":"OSM road refs D3339 and D3989: D3339 from where it enters Makotopong (Census 2011 boundary) south to its junction with D3989, then D3989 south through Ga-Mothiba to the R71. This follows 'from Makotopong to Ga-Mothiba'; the exact section is not stated. The project also names D3959, but the only D3959 in OSM is 8 km away near Sebayeng and is not connected, so that part is not drawn."},"geometry":{"type":"LineString","coordinates":[[29.63649,-23.79419],[29.6371,-23.8026],[29.63587,-23.80504],[29.63672,-23.81421],[29.63717,-23.81532],[29.63993,-23.8181],[29.6433,-23.83591],[29.63918,-23.83717],[29.63843,-23.83838],[29.6417,-23.8486],[29.64168,-23.84964],[29.63497,-23.85499],[29.63469,-23.85606],[29.63899,-23.86105],[29.64457,-23.85961],[29.66062,-23.87913],[29.66566,-23.8837],[29.66644,-23.8883],[29.669,-23.88794],[29.66942,-23.88906]]}}]}