{"type":"FeatureCollection","features":[{"type":"Feature","properties":{"ward":1,"id":"93504001"},"geometry":{"type":"Polygon","coordinates":[[[29.32217,-23.85216],[29.3271,-23.85741],[29.33337,-23.86327],[29.34159,-23.86923],[29.34231,-23.87128],[29.34416,-23.87344],[29.35783,-23.88043],[29.36369,-23.88269],[29.39083,-23.88567],[29.39308,-23.88614],[29.39185,-23.89244],[29.40144,-23.90911],[29.41456,-23.91512],[29.41416,-23.91568],[29.41428,-23.91614],[29.41587,-23.91746],[29.41649,-23.91939],[29.41595,-23.92034],[29.41397,-23.92132],[29.41258,-23.92434],[29.41138,-23.92607],[29.41771,-23.93739],[29.41973,-23.94006],[29.42257,-23.94485],[29.42491,-23.94942],[29.40107,-24.00255],[29.40718,-24.01577],[29.40913,-24.01713],[29.43325,-24.03752],[29.43573,-24.03861],[29.43636,-24.04017],[29.44875,-24.03901],[29.45925,-24.03861],[29.46135,-24.08364],[29.46616,-24.107],[29.4739,-24.12377],[29.47392,-24.12764],[29.47343,-24.13238],[29.47529,-24.13668],[29.47823,-24.1413],[29.51479,-24.13406],[29.5229,-24.14986],[29.52486,-24.1596],[29.534,-24.16881],[29.53166,-24.17015],[29.5308,-24.1695],[29.53008,-24.17043],[29.52944,-24.17008],[29.52856,-24.17063],[29.52814,-24.17032],[29.52714,-24.17036],[29.52478,-24.17239],[29.52236,-24.17343],[29.52082,-24.17345],[29.52006,-24.17412],[29.51977,-24.17414],[29.51932,-24.1735],[29.51831,-24.17367],[29.51702,-24.1745],[29.51756,-24.17751],[29.51734,-24.17781],[29.51815,-24.17881],[29.51826,-24.1795],[29.51912,-24.17971],[29.51911,-24.1805],[29.51967,-24.18026],[29.51982,-24.18079],[29.52105,-24.18132],[29.52127,-24.18198],[29.52255,-24.1831],[29.52359,-24.18346],[29.52519,-24.18578],[29.5258,-24.18822],[29.52544,-24.18969],[29.52972,-24.19553],[29.5314,-24.19883],[29.53152,-24.20414],[29.5319,-24.20557],[29.53263,-24.20676],[29.50733,-24.22053],[29.48151,-24.22629],[29.4738,-24.23051],[29.4461,-24.24065],[29.42973,-24.25128],[29.42147,-24.25772],[29.40903,-24.26227],[29.39315,-24.2731],[29.38638,-24.27333],[29.36828,-24.27904],[29.33229,-24.29691],[29.31796,-24.2739],[29.28803,-24.29505],[29.26647,-24.28388],[29.25429,-24.26489],[29.23296,-24.23443],[29.22238,-24.22847],[29.21059,-24.25874],[29.18897,-24.25694],[29.19528,-24.23115],[29.19034,-24.20256],[29.19172,-24.17028],[29.2285,-24.14414],[29.23419,-24.14543],[29.23004,-24.10906],[29.21049,-24.09844],[29.18795,-24.09293],[29.18529,-24.07044],[29.16215,-24.07928],[29.15266,-24.06482],[29.15368,-24.05679],[29.18066,-24.03233],[29.19944,-24.01367],[29.1838,-24.00908],[29.15701,-24.00818],[29.14851,-24.00914],[29.12004,-23.99646],[29.1363,-23.99242],[29.14413,-23.98898],[29.15922,-23.98383],[29.18179,-23.97689],[29.17966,-23.94412],[29.23365,-23.8497],[29.2566,-23.85999],[29.26866,-23.85534],[29.27681,-23.85605],[29.27785,-23.83788],[29.28896,-23.83344],[29.31052,-23.84013],[29.32217,-23.85216]]]}},{"type":"Feature","properties":{"ward":2,"id":"93504002"},"geometry":{"type":"Polygon","coordinates":[[[29.62268,-24.04569],[29.61691,-24.0643],[29.61386,-24.08337],[29.62984,-24.10683],[29.64838,-24.11394],[29.66296,-24.14461],[29.63307,-24.16179],[29.60619,-24.17655],[29.59652,-24.18111],[29.56203,-24.19557],[29.548,-24.20111],[29.53676,-24.20451],[29.53263,-24.20676],[29.5319,-24.20557],[29.53152,-24.20414],[29.5314,-24.19883],[29.52972,-24.19553],[29.52544,-24.18969],[29.5258,-24.18822],[29.52519,-24.18578],[29.52359,-24.18346],[29.52255,-24.1831],[29.52127,-24.18198],[29.52105,-24.18132],[29.51982,-24.18079],[29.51967,-24.18026],[29.51911,-24.1805],[29.51912,-24.17971],[29.51826,-24.1795],[29.51815,-24.17881],[29.51734,-24.17781],[29.51756,-24.17751],[29.51702,-24.1745],[29.51831,-24.17367],[29.51932,-24.1735],[29.51977,-24.17414],[29.52006,-24.17412],[29.52082,-24.17345],[29.52236,-24.17343],[29.52478,-24.17239],[29.52714,-24.17036],[29.52814,-24.17032],[29.52856,-24.17063],[29.52944,-24.17008],[29.53008,-24.17043],[29.5308,-24.1695],[29.53166,-24.17015],[29.534,-24.16881],[29.52486,-24.1596],[29.5229,-24.14986],[29.51479,-24.13406],[29.47823,-24.1413],[29.47529,-24.13668],[29.47343,-24.13238],[29.47392,-24.12764],[29.4739,-24.12377],[29.46616,-24.107],[29.46135,-24.08364],[29.4595,-24.04246],[29.469,-24.03985],[29.46959,-24.03692],[29.47052,-24.03507],[29.47446,-24.03135],[29.47515,-24.02983],[29.47709,-24.0276],[29.48936,-24.03978],[29.49275,-24.04181],[29.495,-24.04568],[29.49645,-24.04556],[29.50149,-24.04086],[29.50453,-24.03878],[29.50775,-24.03539],[29.50973,-24.0347],[29.51071,-24.03319],[29.51386,-24.03002],[29.52081,-24.02136],[29.58107,-24.0159],[29.63362,-23.99389],[29.633,-24.00072],[29.633,-24.00833],[29.63389,-24.0095],[29.62268,-24.04569]]]}},{"type":"Feature","properties":{"ward":3,"id":"93504003"},"geometry":{"type":"Polygon","coordinates":[[[29.7003,-24.00135],[29.70282,-24.00177],[29.7061,-24.00149],[29.70728,-24.00275],[29.70829,-24.00433],[29.70777,-24.00606],[29.70852,-24.00675],[29.70855,-24.00731],[29.70952,-24.00862],[29.7094,-24.009],[29.7107,-24.00971],[29.71172,-24.01159],[29.71361,-24.01335],[29.71366,-24.01391],[29.71406,-24.01412],[29.7139,-24.01708],[29.71527,-24.01789],[29.71739,-24.02204],[29.72509,-24.02758],[29.73355,-24.03047],[29.73438,-24.02838],[29.73549,-24.02747],[29.73596,-24.0261],[29.7364,-24.02569],[29.73706,-24.02205],[29.74822,-24.01897],[29.75115,-24.02344],[29.75467,-24.02646],[29.75674,-24.02747],[29.7568,-24.02897],[29.75615,-24.03016],[29.7571,-24.03066],[29.75819,-24.03031],[29.76278,-24.03087],[29.76699,-24.03364],[29.76864,-24.03107],[29.76917,-24.03118],[29.7702,-24.0308],[29.77043,-24.02962],[29.76949,-24.0283],[29.76958,-24.02777],[29.77128,-24.0254],[29.77225,-24.02475],[29.77225,-24.02381],[29.77184,-24.0234],[29.77383,-24.0226],[29.77752,-24.02286],[29.78147,-24.02266],[29.78422,-24.02318],[29.78742,-24.02269],[29.78896,-24.02377],[29.79137,-24.02479],[29.79183,-24.02603],[29.79314,-24.02776],[29.79833,-24.03295],[29.79925,-24.0337],[29.80049,-24.0341],[29.80425,-24.0372],[29.80568,-24.04014],[29.80634,-24.04246],[29.80758,-24.04364],[29.8081,-24.04468],[29.80787,-24.04612],[29.80859,-24.04846],[29.78235,-24.05953],[29.74206,-24.09252],[29.75683,-24.09175],[29.77958,-24.1079],[29.75638,-24.10517],[29.7555,-24.10441],[29.73589,-24.10724],[29.72012,-24.1133],[29.6932,-24.12641],[29.66296,-24.14461],[29.64838,-24.11394],[29.62984,-24.10683],[29.61386,-24.08337],[29.61691,-24.0643],[29.62649,-24.03339],[29.62779,-24.03281],[29.62824,-24.03296],[29.62881,-24.03397],[29.63132,-24.03431],[29.63251,-24.03514],[29.63411,-24.03533],[29.63442,-24.03637],[29.63495,-24.0367],[29.63854,-24.0363],[29.63944,-24.03688],[29.63964,-24.03753],[29.64089,-24.03774],[29.64231,-24.03688],[29.64278,-24.03776],[29.64419,-24.03742],[29.64579,-24.03791],[29.64619,-24.0383],[29.64614,-24.03932],[29.64664,-24.03991],[29.64708,-24.03997],[29.64806,-24.03909],[29.64926,-24.04042],[29.6504,-24.04048],[29.65192,-24.04006],[29.65251,-24.04076],[29.65369,-24.0413],[29.65443,-24.04233],[29.65684,-24.04234],[29.65737,-24.04331],[29.65897,-24.04422],[29.65934,-24.04415],[29.65938,-24.04359],[29.66062,-24.0431],[29.66349,-24.04281],[29.66562,-24.04389],[29.66583,-24.0446],[29.66548,-24.04492],[29.66573,-24.04534],[29.66753,-24.04594],[29.66792,-24.04519],[29.66996,-24.04525],[29.67024,-24.04479],[29.67249,-24.04376],[29.67312,-24.04423],[29.67542,-24.04343],[29.67565,-24.04387],[29.68002,-24.04466],[29.68211,-24.04392],[29.68408,-24.04376],[29.68537,-24.04514],[29.68687,-24.04557],[29.68819,-24.04672],[29.68859,-24.04774],[29.68842,-24.04803],[29.68787,-24.04803],[29.68807,-24.04831],[29.68939,-24.04891],[29.69053,-24.04883],[29.69089,-24.04941],[29.6918,-24.04929],[29.69408,-24.05026],[29.69442,-24.05092],[29.69618,-24.05196],[29.69666,-24.05212],[29.69855,-24.05144],[29.70008,-24.05133],[29.70045,-24.05223],[29.70208,-24.05296],[29.70385,-24.05167],[29.70488,-24.05048],[29.7052,-24.04958],[29.70391,-24.04962],[29.70077,-24.04783],[29.69978,-24.04879],[29.6991,-24.04868],[29.69843,-24.04527],[29.69719,-24.04348],[29.6966,-24.04118],[29.69692,-24.04013],[29.69524,-24.03935],[29.69446,-24.0382],[29.69289,-24.03439],[29.69298,-24.03144],[29.69199,-24.03009],[29.69185,-24.02942],[29.69123,-24.02889],[29.69068,-24.02653],[29.68995,-24.02557],[29.68924,-24.02527],[29.68917,-24.02435],[29.68738,-24.02355],[29.68718,-24.02277],[29.68472,-24.02167],[29.68449,-24.02096],[29.68392,-24.02085],[29.68257,-24.01896],[29.68054,-24.01737],[29.68002,-24.01625],[29.68006,-24.0156],[29.67902,-24.01438],[29.68536,-24.00991],[29.68534,-24.00847],[29.6858,-24.00745],[29.69199,-24.00302],[29.69267,-24.00193],[29.7003,-24.00135]]]}},{"type":"Feature","properties":{"ward":4,"id":"93504004"},"geometry":{"type":"Polygon","coordinates":[[[29.78188,-23.93073],[29.78221,-23.92994],[29.78297,-23.92924],[29.78462,-23.92864],[29.78679,-23.92835],[29.78756,-23.92791],[29.78779,-23.92732],[29.78886,-23.92707],[29.78975,-23.92644],[29.79142,-23.92656],[29.7925,-23.92742],[29.79404,-23.92712],[29.79404,-23.92775],[29.79517,-23.92809],[29.79512,-23.92937],[29.79741,-23.92921],[29.79871,-23.92848],[29.79884,-23.92874],[29.80041,-23.92901],[29.80182,-23.92896],[29.80418,-23.9309],[29.80946,-23.93264],[29.80884,-23.93383],[29.80845,-23.93563],[29.80943,-23.93799],[29.80959,-23.93913],[29.81041,-23.94062],[29.81134,-23.94156],[29.81195,-23.94195],[29.81269,-23.94195],[29.81678,-23.94093],[29.8193,-23.94114],[29.82018,-23.94155],[29.82158,-23.94137],[29.82338,-23.9402],[29.8256,-23.93817],[29.82576,-23.93754],[29.82891,-23.93635],[29.82914,-23.93607],[29.82903,-23.934],[29.83138,-23.93246],[29.83185,-23.93094],[29.8325,-23.93012],[29.83413,-23.92944],[29.83811,-23.92856],[29.84353,-23.92466],[29.84644,-23.92582],[29.84792,-23.92551],[29.84915,-23.9261],[29.85221,-23.92594],[29.85243,-23.92527],[29.85218,-23.92459],[29.85299,-23.92313],[29.85455,-23.92228],[29.86375,-23.95138],[29.83854,-23.95246],[29.81014,-23.96855],[29.82726,-24.04058],[29.80859,-24.04846],[29.80787,-24.04612],[29.8081,-24.04468],[29.80758,-24.04364],[29.80634,-24.04246],[29.80568,-24.04014],[29.80425,-24.0372],[29.80049,-24.0341],[29.79925,-24.0337],[29.79833,-24.03295],[29.79314,-24.02776],[29.79183,-24.02603],[29.79137,-24.02479],[29.78896,-24.02377],[29.78742,-24.02269],[29.78422,-24.02318],[29.78147,-24.02266],[29.77752,-24.02286],[29.77383,-24.0226],[29.77184,-24.0234],[29.77225,-24.02381],[29.77225,-24.02475],[29.77128,-24.0254],[29.76958,-24.02777],[29.76949,-24.0283],[29.77043,-24.02962],[29.7702,-24.0308],[29.76917,-24.03118],[29.76864,-24.03107],[29.76699,-24.03364],[29.76278,-24.03087],[29.75819,-24.03031],[29.7571,-24.03066],[29.75615,-24.03016],[29.7568,-24.02897],[29.75674,-24.02747],[29.75467,-24.02646],[29.75115,-24.02344],[29.74822,-24.01897],[29.73706,-24.02205],[29.7364,-24.02569],[29.73596,-24.0261],[29.73549,-24.02747],[29.73438,-24.02838],[29.73355,-24.03047],[29.72509,-24.02758],[29.71739,-24.02204],[29.71527,-24.01789],[29.7139,-24.01708],[29.71406,-24.01412],[29.71281,-24.01243],[29.71172,-24.01159],[29.7107,-24.00971],[29.70934,-24.0089],[29.70952,-24.00862],[29.70855,-24.00731],[29.70852,-24.00675],[29.70777,-24.00606],[29.70829,-24.00433],[29.7061,-24.00149],[29.70679,-24.0011],[29.70799,-24.00099],[29.70791,-23.99951],[29.71148,-23.99654],[29.71263,-23.99599],[29.71342,-23.9949],[29.71598,-23.99272],[29.72164,-23.98609],[29.72194,-23.98506],[29.72136,-23.98421],[29.72337,-23.98141],[29.7236,-23.98007],[29.72471,-23.97748],[29.72504,-23.9729],[29.72746,-23.96834],[29.72796,-23.96584],[29.72778,-23.96268],[29.73501,-23.96187],[29.73618,-23.96343],[29.74984,-23.96278],[29.75168,-23.96305],[29.75999,-23.96277],[29.76531,-23.96337],[29.76681,-23.96312],[29.76812,-23.96197],[29.76565,-23.95905],[29.76003,-23.94187],[29.75909,-23.92595],[29.76246,-23.92231],[29.76355,-23.92201],[29.76505,-23.92012],[29.76563,-23.92011],[29.77012,-23.92307],[29.77191,-23.92547],[29.77734,-23.92791],[29.78188,-23.93073]]]}},{"type":"Feature","properties":{"ward":5,"id":"93504005"},"geometry":{"type":"Polygon","coordinates":[[[29.67191,-23.89684],[29.67686,-23.90721],[29.67912,-23.90841],[29.69501,-23.9229],[29.69752,-23.92426],[29.69867,-23.92523],[29.70136,-23.93067],[29.69833,-23.93157],[29.69806,-23.93191],[29.69539,-23.93249],[29.69627,-23.9339],[29.69842,-23.93612],[29.7007,-23.94285],[29.69959,-23.94381],[29.69488,-23.94459],[29.69256,-23.94539],[29.69447,-23.94681],[29.69989,-23.95371],[29.69733,-23.95559],[29.69517,-23.95621],[29.69496,-23.95602],[29.69032,-23.95885],[29.69082,-23.95962],[29.6898,-23.96031],[29.68938,-23.96181],[29.67855,-23.96686],[29.68045,-23.97082],[29.68372,-23.96872],[29.68575,-23.97144],[29.68746,-23.97463],[29.68838,-23.97536],[29.68838,-23.97715],[29.68913,-23.98093],[29.68875,-23.98186],[29.68637,-23.98382],[29.6857,-23.9853],[29.68507,-23.98941],[29.68524,-23.99144],[29.68577,-23.99244],[29.68691,-23.99383],[29.69115,-23.99597],[29.69204,-23.9973],[29.69357,-23.99772],[29.6949,-23.9988],[29.69715,-23.99935],[29.69766,-23.99997],[29.7003,-24.00135],[29.69267,-24.00193],[29.69199,-24.00302],[29.6858,-24.00745],[29.68534,-24.00847],[29.68536,-24.00991],[29.67902,-24.01438],[29.68006,-24.0156],[29.68002,-24.01625],[29.68054,-24.01737],[29.68257,-24.01896],[29.68392,-24.02085],[29.68449,-24.02096],[29.68472,-24.02167],[29.68718,-24.02277],[29.68738,-24.02355],[29.68917,-24.02435],[29.68924,-24.02527],[29.68995,-24.02557],[29.69068,-24.02653],[29.69123,-24.02889],[29.69185,-24.02942],[29.69199,-24.03009],[29.69298,-24.03144],[29.69289,-24.03439],[29.69446,-24.0382],[29.69524,-24.03935],[29.69692,-24.04013],[29.6966,-24.04118],[29.69719,-24.04348],[29.69843,-24.04527],[29.6991,-24.04868],[29.69978,-24.04879],[29.70077,-24.04783],[29.70391,-24.04962],[29.7052,-24.04958],[29.70429,-24.05131],[29.70208,-24.05296],[29.70045,-24.05223],[29.70008,-24.05133],[29.69855,-24.05144],[29.69666,-24.05212],[29.69442,-24.05092],[29.69408,-24.05026],[29.6918,-24.04929],[29.69089,-24.04941],[29.69053,-24.04883],[29.68939,-24.04891],[29.68807,-24.04831],[29.68787,-24.04803],[29.68842,-24.04803],[29.68859,-24.04774],[29.68819,-24.04672],[29.68687,-24.04557],[29.68537,-24.04514],[29.68408,-24.04376],[29.68211,-24.04392],[29.68002,-24.04466],[29.67565,-24.04387],[29.67542,-24.04343],[29.67312,-24.04423],[29.67249,-24.04376],[29.67024,-24.04479],[29.66996,-24.04525],[29.66792,-24.04519],[29.66769,-24.04588],[29.66726,-24.04591],[29.66573,-24.04534],[29.66548,-24.04492],[29.66583,-24.0446],[29.66562,-24.04389],[29.66349,-24.04281],[29.66062,-24.0431],[29.65938,-24.04359],[29.65934,-24.04415],[29.65897,-24.04422],[29.65737,-24.04331],[29.65684,-24.04234],[29.65443,-24.04233],[29.65369,-24.0413],[29.65251,-24.04076],[29.65192,-24.04006],[29.6504,-24.04048],[29.64926,-24.04042],[29.64806,-24.03909],[29.64708,-24.03997],[29.64664,-24.03991],[29.64614,-24.03932],[29.64619,-24.0383],[29.64504,-24.03756],[29.64375,-24.03746],[29.64278,-24.03776],[29.64208,-24.03688],[29.64125,-24.03729],[29.64108,-24.03772],[29.63987,-24.0376],[29.63944,-24.03688],[29.63854,-24.0363],[29.63495,-24.0367],[29.63442,-24.03637],[29.63411,-24.03533],[29.63251,-24.03514],[29.63132,-24.03431],[29.62881,-24.03397],[29.62805,-24.03282],[29.62649,-24.03339],[29.63389,-24.0095],[29.633,-24.00833],[29.633,-24.00072],[29.63419,-23.98766],[29.63596,-23.9848],[29.60752,-23.93523],[29.61495,-23.90906],[29.64033,-23.91601],[29.64051,-23.91333],[29.66332,-23.91146],[29.66208,-23.90401],[29.66135,-23.90394],[29.66017,-23.8997],[29.65988,-23.89977],[29.65923,-23.89765],[29.66025,-23.89732],[29.66154,-23.89524],[29.66083,-23.89489],[29.6598,-23.89083],[29.66938,-23.88927],[29.67093,-23.89494],[29.67191,-23.89684]]]}},{"type":"Feature","properties":{"ward":6,"id":"93504006"},"geometry":{"type":"Polygon","coordinates":[[[29.62168,-23.88656],[29.62116,-23.88711],[29.64222,-23.8809],[29.64647,-23.88086],[29.64886,-23.88201],[29.64928,-23.88111],[29.65835,-23.87765],[29.6593,-23.87746],[29.65985,-23.87808],[29.6642,-23.87491],[29.66324,-23.87397],[29.66221,-23.87469],[29.66087,-23.87466],[29.66012,-23.87414],[29.65996,-23.87107],[29.66043,-23.869],[29.66042,-23.86717],[29.6651,-23.86619],[29.66649,-23.86514],[29.66637,-23.86434],[29.66674,-23.86424],[29.66804,-23.8642],[29.66999,-23.86468],[29.67116,-23.86161],[29.67758,-23.87037],[29.69683,-23.90687],[29.68076,-23.90545],[29.67851,-23.90802],[29.67686,-23.90721],[29.67093,-23.89494],[29.66938,-23.88927],[29.6598,-23.89083],[29.66083,-23.89489],[29.66154,-23.89524],[29.66025,-23.89732],[29.65923,-23.89765],[29.65988,-23.89977],[29.66017,-23.8997],[29.66135,-23.90394],[29.66208,-23.90401],[29.66332,-23.91146],[29.64051,-23.91333],[29.64033,-23.91601],[29.61495,-23.90906],[29.60752,-23.93523],[29.63596,-23.9848],[29.63419,-23.98766],[29.63362,-23.99389],[29.58107,-24.0159],[29.52081,-24.02136],[29.51386,-24.03002],[29.51071,-24.03319],[29.50973,-24.0347],[29.50775,-24.03539],[29.50453,-24.03878],[29.50149,-24.04086],[29.49645,-24.04556],[29.49567,-24.04571],[29.495,-24.04568],[29.49275,-24.04181],[29.48936,-24.03978],[29.47709,-24.0276],[29.47515,-24.02983],[29.47446,-24.03135],[29.47052,-24.03507],[29.46959,-24.03692],[29.469,-24.03985],[29.4595,-24.04247],[29.45925,-24.03861],[29.44875,-24.03901],[29.43636,-24.04017],[29.43573,-24.03861],[29.43325,-24.03752],[29.40913,-24.01713],[29.40718,-24.01577],[29.40107,-24.00255],[29.42491,-23.94942],[29.45205,-23.95908],[29.46749,-23.97581],[29.47351,-23.96921],[29.47612,-23.96977],[29.48096,-23.96905],[29.48211,-23.96854],[29.48214,-23.96311],[29.48091,-23.96051],[29.47922,-23.95817],[29.48055,-23.95673],[29.4816,-23.95654],[29.48285,-23.95681],[29.48328,-23.9551],[29.48381,-23.95475],[29.48606,-23.95118],[29.49301,-23.94689],[29.49185,-23.94554],[29.49724,-23.94102],[29.49563,-23.93878],[29.5117,-23.91836],[29.51729,-23.8963],[29.56312,-23.83665],[29.54761,-23.80595],[29.59815,-23.78105],[29.61521,-23.82987],[29.60148,-23.83036],[29.59509,-23.84915],[29.62168,-23.88656]]]}},{"type":"Feature","properties":{"ward":7,"id":"93504007"},"geometry":{"type":"Polygon","coordinates":[[[29.71662,-23.9169],[29.71888,-23.91777],[29.72492,-23.91788],[29.72631,-23.91845],[29.72718,-23.92062],[29.72672,-23.92413],[29.72566,-23.92541],[29.72571,-23.92683],[29.72636,-23.92797],[29.72623,-23.92873],[29.72672,-23.9307],[29.76003,-23.94187],[29.76565,-23.95905],[29.76812,-23.96197],[29.76681,-23.96312],[29.76531,-23.96337],[29.75999,-23.96277],[29.75168,-23.96305],[29.74984,-23.96278],[29.73618,-23.96343],[29.73501,-23.96187],[29.72778,-23.96268],[29.72796,-23.96584],[29.72746,-23.96834],[29.72504,-23.9729],[29.72471,-23.97748],[29.7236,-23.98007],[29.72337,-23.98141],[29.72136,-23.98421],[29.72194,-23.98506],[29.72164,-23.98609],[29.71598,-23.99272],[29.71342,-23.9949],[29.71263,-23.99599],[29.71148,-23.99654],[29.70791,-23.99951],[29.70799,-24.00099],[29.70679,-24.0011],[29.7056,-24.00171],[29.70094,-24.00152],[29.6987,-24.00062],[29.69718,-23.99966],[29.69715,-23.99935],[29.6949,-23.9988],[29.69357,-23.99772],[29.69204,-23.9973],[29.69115,-23.99597],[29.68691,-23.99383],[29.68577,-23.99244],[29.68524,-23.99144],[29.68507,-23.98941],[29.6857,-23.9853],[29.68637,-23.98382],[29.68875,-23.98186],[29.68913,-23.98093],[29.68838,-23.97715],[29.68838,-23.97536],[29.68746,-23.97463],[29.68575,-23.97144],[29.68372,-23.96872],[29.68045,-23.97082],[29.67855,-23.96686],[29.68938,-23.96181],[29.6898,-23.96031],[29.69082,-23.95962],[29.69032,-23.95885],[29.69496,-23.95602],[29.69517,-23.95621],[29.69733,-23.95559],[29.69989,-23.95371],[29.69447,-23.94681],[29.69256,-23.94539],[29.69488,-23.94459],[29.69959,-23.94381],[29.7007,-23.94285],[29.69842,-23.93612],[29.69627,-23.9339],[29.69539,-23.93249],[29.69806,-23.93191],[29.69833,-23.93157],[29.70136,-23.93067],[29.69875,-23.92534],[29.70139,-23.92449],[29.70106,-23.92386],[29.70068,-23.92038],[29.70438,-23.91894],[29.70645,-23.9237],[29.70969,-23.92198],[29.70903,-23.91616],[29.71641,-23.91526],[29.71662,-23.9169]]]}},{"type":"Feature","properties":{"ward":8,"id":"93504008"},"geometry":{"type":"Polygon","coordinates":[[[29.40937,-23.87009],[29.40918,-23.87213],[29.40718,-23.87642],[29.40743,-23.87667],[29.40765,-23.88039],[29.41019,-23.88128],[29.41162,-23.87859],[29.41205,-23.87831],[29.41508,-23.87978],[29.41535,-23.87939],[29.4177,-23.88033],[29.41928,-23.87836],[29.42288,-23.88227],[29.42878,-23.88672],[29.42863,-23.88895],[29.42802,-23.88908],[29.42777,-23.88963],[29.42817,-23.89291],[29.42702,-23.89441],[29.42607,-23.89764],[29.4262,-23.89817],[29.42698,-23.89865],[29.42748,-23.89982],[29.42576,-23.89972],[29.41844,-23.90044],[29.4171,-23.90026],[29.41438,-23.90388],[29.4013,-23.90887],[29.39185,-23.89244],[29.39312,-23.88595],[29.39716,-23.86745],[29.40186,-23.86869],[29.40405,-23.87061],[29.40658,-23.86644],[29.40846,-23.86496],[29.41057,-23.86764],[29.40958,-23.869],[29.40937,-23.87009]]]}},{"type":"Feature","properties":{"ward":9,"id":"93504009"},"geometry":{"type":"Polygon","coordinates":[[[29.26512,-23.74059],[29.27151,-23.74677],[29.27375,-23.74757],[29.2748,-23.74779],[29.27451,-23.74703],[29.27732,-23.74652],[29.27712,-23.74603],[29.27895,-23.74578],[29.27886,-23.7454],[29.2807,-23.74515],[29.28208,-23.74782],[29.29004,-23.74672],[29.29225,-23.74669],[29.29229,-23.74759],[29.29345,-23.74925],[29.29418,-23.75136],[29.29183,-23.75198],[29.28534,-23.75785],[29.28354,-23.75809],[29.28233,-23.75864],[29.27913,-23.75895],[29.27712,-23.7604],[29.27587,-23.76038],[29.27423,-23.76237],[29.2725,-23.76315],[29.27051,-23.76531],[29.27051,-23.76747],[29.26948,-23.76954],[29.26559,-23.77153],[29.26412,-23.77317],[29.26343,-23.77533],[29.26239,-23.7768],[29.26213,-23.77974],[29.26163,-23.78036],[29.26211,-23.78193],[29.26359,-23.78466],[29.26378,-23.78569],[29.26491,-23.78659],[29.26463,-23.78725],[29.26752,-23.78704],[29.2762,-23.78827],[29.27939,-23.78716],[29.28231,-23.7882],[29.28721,-23.78882],[29.29283,-23.78847],[29.29959,-23.78935],[29.30166,-23.78919],[29.30476,-23.78802],[29.3109,-23.78818],[29.31272,-23.78882],[29.31371,-23.78993],[29.31279,-23.79271],[29.31258,-23.79782],[29.31116,-23.79994],[29.31109,-23.8005],[29.30976,-23.80136],[29.30962,-23.80216],[29.30808,-23.8035],[29.30711,-23.80489],[29.30546,-23.80602],[29.30535,-23.80684],[29.3039,-23.80974],[29.30428,-23.81144],[29.30349,-23.81288],[29.30347,-23.81327],[29.30475,-23.81438],[29.30536,-23.81559],[29.30621,-23.81881],[29.30795,-23.82283],[29.3097,-23.82966],[29.30957,-23.83315],[29.30788,-23.8358],[29.3081,-23.83927],[29.28896,-23.83344],[29.27785,-23.83788],[29.27681,-23.85605],[29.26866,-23.85534],[29.2566,-23.85999],[29.23365,-23.8497],[29.21378,-23.88443],[29.17649,-23.87351],[29.17747,-23.87054],[29.17813,-23.8695],[29.18025,-23.86807],[29.18037,-23.86634],[29.18264,-23.86526],[29.18361,-23.86352],[29.18862,-23.86047],[29.18947,-23.85878],[29.19005,-23.85604],[29.18955,-23.85372],[29.18955,-23.8516],[29.19047,-23.84963],[29.1902,-23.84836],[29.19036,-23.84712],[29.19283,-23.84439],[29.19352,-23.84165],[29.19456,-23.84103],[29.19491,-23.84045],[29.19521,-23.83937],[29.19464,-23.8382],[29.19458,-23.83713],[29.19589,-23.83532],[29.19626,-23.83305],[29.19771,-23.83142],[29.19815,-23.82919],[29.19996,-23.82816],[29.19995,-23.82717],[29.20167,-23.82538],[29.20271,-23.82379],[29.20359,-23.82104],[29.20447,-23.81978],[29.20709,-23.81816],[29.20822,-23.8169],[29.20972,-23.81377],[29.21241,-23.81253],[29.21475,-23.80968],[29.21062,-23.80836],[29.19183,-23.80748],[29.19755,-23.7966],[29.18242,-23.79073],[29.18684,-23.76086],[29.18885,-23.76285],[29.19075,-23.76414],[29.19865,-23.7654],[29.20211,-23.76781],[29.20413,-23.76784],[29.20589,-23.76851],[29.20786,-23.76851],[29.21118,-23.76942],[29.21373,-23.77074],[29.21558,-23.77127],[29.21619,-23.77095],[29.22394,-23.77145],[29.22494,-23.77204],[29.22506,-23.77506],[29.22607,-23.77646],[29.2297,-23.77259],[29.23015,-23.77181],[29.23039,-23.76995],[29.23119,-23.76866],[29.23375,-23.76807],[29.23497,-23.76827],[29.23655,-23.7675],[29.23797,-23.76614],[29.23867,-23.76166],[29.24039,-23.75975],[29.24307,-23.75849],[29.24445,-23.75741],[29.24476,-23.75607],[29.24444,-23.75473],[29.24521,-23.75282],[29.24827,-23.75014],[29.25004,-23.74713],[29.25522,-23.74615],[29.25798,-23.74416],[29.25934,-23.74257],[29.25932,-23.74007],[29.26069,-23.73771],[29.26208,-23.73764],[29.26512,-23.74059]]]}},{"type":"Feature","properties":{"ward":10,"id":"93504010"},"geometry":{"type":"Polygon","coordinates":[[[29.36186,-23.8081],[29.36213,-23.80843],[29.36512,-23.80565],[29.36573,-23.80545],[29.37318,-23.81116],[29.37296,-23.81152],[29.37398,-23.81137],[29.37442,-23.81481],[29.37631,-23.81452],[29.37721,-23.81667],[29.37824,-23.81631],[29.38198,-23.81925],[29.38442,-23.82044],[29.38495,-23.82042],[29.38863,-23.82552],[29.3875,-23.82601],[29.38832,-23.82946],[29.38652,-23.82963],[29.38522,-23.83075],[29.38249,-23.83106],[29.37951,-23.8321],[29.37977,-23.82916],[29.37897,-23.8275],[29.3776,-23.82816],[29.37531,-23.82853],[29.37357,-23.82832],[29.37309,-23.82806],[29.37309,-23.82758],[29.37204,-23.82726],[29.37172,-23.82661],[29.37114,-23.82677],[29.37078,-23.82654],[29.37003,-23.82574],[29.37003,-23.82523],[29.36939,-23.82505],[29.36612,-23.8258],[29.36526,-23.82631],[29.3648,-23.82586],[29.36318,-23.82701],[29.3608,-23.82755],[29.35617,-23.83053],[29.35558,-23.83122],[29.35193,-23.8329],[29.35101,-23.83376],[29.34809,-23.83409],[29.34776,-23.83375],[29.3471,-23.83118],[29.34304,-23.82434],[29.34535,-23.82402],[29.34737,-23.82329],[29.35481,-23.81878],[29.35668,-23.81798],[29.36038,-23.81716],[29.36052,-23.81693],[29.35994,-23.8163],[29.35961,-23.81507],[29.35896,-23.81489],[29.35818,-23.814],[29.35695,-23.81413],[29.3559,-23.81321],[29.3561,-23.81228],[29.35577,-23.81212],[29.3559,-23.80958],[29.35505,-23.8063],[29.35728,-23.80506],[29.35708,-23.80364],[29.35627,-23.80266],[29.35702,-23.80212],[29.36186,-23.8081]]]}},{"type":"Feature","properties":{"ward":11,"id":"93504011"},"geometry":{"type":"Polygon","coordinates":[[[29.36003,-23.84939],[29.3608,-23.85067],[29.36265,-23.85052],[29.36341,-23.8493],[29.36481,-23.85054],[29.36611,-23.84964],[29.36676,-23.85345],[29.37215,-23.85295],[29.37733,-23.85396],[29.37456,-23.86003],[29.36994,-23.87169],[29.36397,-23.86445],[29.35802,-23.85262],[29.35539,-23.85526],[29.3395,-23.84132],[29.36395,-23.83547],[29.36525,-23.83674],[29.3689,-23.83885],[29.37083,-23.84063],[29.36829,-23.84408],[29.36755,-23.84457],[29.36466,-23.84505],[29.36363,-23.84554],[29.36141,-23.84724],[29.36003,-23.84939]]]}},{"type":"Feature","properties":{"ward":12,"id":"93504012"},"geometry":{"type":"Polygon","coordinates":[[[29.37044,-23.82623],[29.37114,-23.82677],[29.37172,-23.82661],[29.37204,-23.82726],[29.37309,-23.82758],[29.37338,-23.82826],[29.3747,-23.82855],[29.3776,-23.82816],[29.37897,-23.8275],[29.37941,-23.82806],[29.37978,-23.82956],[29.37913,-23.83581],[29.37905,-23.84138],[29.3826,-23.84136],[29.38567,-23.83947],[29.38591,-23.83898],[29.38829,-23.83978],[29.38951,-23.84151],[29.39137,-23.84036],[29.39279,-23.84231],[29.38718,-23.8458],[29.3868,-23.8453],[29.38794,-23.84458],[29.3869,-23.84315],[29.38314,-23.84547],[29.38057,-23.84551],[29.38061,-23.84673],[29.3814,-23.84787],[29.38007,-23.84866],[29.3791,-23.84868],[29.37875,-23.85066],[29.37733,-23.85396],[29.37215,-23.85295],[29.36676,-23.85345],[29.36611,-23.84964],[29.36481,-23.85054],[29.36341,-23.8493],[29.36265,-23.85052],[29.3608,-23.85067],[29.35998,-23.84933],[29.36141,-23.84724],[29.36413,-23.84527],[29.36755,-23.84457],[29.36829,-23.84408],[29.37083,-23.84063],[29.3689,-23.83885],[29.36525,-23.83674],[29.36395,-23.83547],[29.35163,-23.83845],[29.35105,-23.83809],[29.34934,-23.83496],[29.34809,-23.83409],[29.35101,-23.83376],[29.35193,-23.8329],[29.35558,-23.83122],[29.35617,-23.83053],[29.3605,-23.82769],[29.36318,-23.82701],[29.3648,-23.82586],[29.36526,-23.82631],[29.36612,-23.8258],[29.36939,-23.82505],[29.37003,-23.82523],[29.37044,-23.82623]]]}},{"type":"Feature","properties":{"ward":13,"id":"93504013"},"geometry":{"type":"Polygon","coordinates":[[[29.32636,-23.84434],[29.32842,-23.84428],[29.3395,-23.84132],[29.35539,-23.85526],[29.35802,-23.85262],[29.36397,-23.86445],[29.36994,-23.87169],[29.37456,-23.86003],[29.38109,-23.86049],[29.38231,-23.86376],[29.38327,-23.86346],[29.38285,-23.86232],[29.38457,-23.86178],[29.38438,-23.8611],[29.38696,-23.86108],[29.38686,-23.86043],[29.38599,-23.86039],[29.3862,-23.85855],[29.38822,-23.85617],[29.38749,-23.8541],[29.39163,-23.85279],[29.39962,-23.8543],[29.39997,-23.85464],[29.39308,-23.88614],[29.39083,-23.88567],[29.36369,-23.88269],[29.35783,-23.88043],[29.34416,-23.87344],[29.34231,-23.87128],[29.34159,-23.86923],[29.33337,-23.86327],[29.3271,-23.85741],[29.3117,-23.84116],[29.31338,-23.8407],[29.32636,-23.84434]]]}},{"type":"Feature","properties":{"ward":14,"id":"93504014"},"geometry":{"type":"Polygon","coordinates":[[[29.43598,-23.87003],[29.43338,-23.87243],[29.42584,-23.87015],[29.42509,-23.87314],[29.42368,-23.87323],[29.4177,-23.88033],[29.41535,-23.87939],[29.41508,-23.87978],[29.41205,-23.87831],[29.41162,-23.87859],[29.41019,-23.88128],[29.40765,-23.88039],[29.40743,-23.87667],[29.40718,-23.87642],[29.40918,-23.87213],[29.40958,-23.869],[29.41057,-23.86764],[29.40846,-23.86496],[29.40932,-23.86418],[29.41137,-23.85958],[29.40543,-23.85546],[29.40634,-23.85375],[29.40994,-23.84938],[29.40846,-23.84764],[29.41168,-23.83482],[29.42855,-23.85022],[29.43005,-23.86077],[29.43635,-23.86964],[29.43598,-23.87003]]]}},{"type":"Feature","properties":{"ward":15,"id":"93504015"},"geometry":{"type":"Polygon","coordinates":[[[29.35125,-23.541],[29.36366,-23.56655],[29.33651,-23.57699],[29.33632,-23.59461],[29.35543,-23.64005],[29.37227,-23.63459],[29.3727,-23.63522],[29.37289,-23.63589],[29.3717,-23.63768],[29.37177,-23.63858],[29.37231,-23.6396],[29.37206,-23.64051],[29.3726,-23.64099],[29.37141,-23.64213],[29.37161,-23.64503],[29.3714,-23.6454],[29.3709,-23.64544],[29.37132,-23.64658],[29.37199,-23.64686],[29.37222,-23.64798],[29.37212,-23.64898],[29.37137,-23.64969],[29.37149,-23.65291],[29.37111,-23.65462],[29.37115,-23.65514],[29.37329,-23.65844],[29.37394,-23.66008],[29.37312,-23.66052],[29.37246,-23.66324],[29.37146,-23.6641],[29.37134,-23.66451],[29.37215,-23.66535],[29.37246,-23.66629],[29.37146,-23.66723],[29.37134,-23.66789],[29.37176,-23.66996],[29.3723,-23.67051],[29.37344,-23.67341],[29.3735,-23.67528],[29.37504,-23.67761],[29.37512,-23.67818],[29.37434,-23.68039],[29.37275,-23.6822],[29.37273,-23.68473],[29.37348,-23.68633],[29.37267,-23.69327],[29.37365,-23.69624],[29.37396,-23.69906],[29.37219,-23.70228],[29.37035,-23.70457],[29.3697,-23.70653],[29.36906,-23.70707],[29.36943,-23.70791],[29.36898,-23.71143],[29.35707,-23.71328],[29.35653,-23.71377],[29.35399,-23.71276],[29.353,-23.71133],[29.35042,-23.70911],[29.35033,-23.70833],[29.34889,-23.70773],[29.34473,-23.70354],[29.34317,-23.70925],[29.34166,-23.71187],[29.34071,-23.71222],[29.33934,-23.71357],[29.33828,-23.71309],[29.32346,-23.71138],[29.32242,-23.71172],[29.31723,-23.71587],[29.31693,-23.71576],[29.32262,-23.69965],[29.32013,-23.699],[29.31498,-23.69645],[29.31289,-23.69403],[29.31193,-23.69337],[29.31757,-23.68968],[29.31903,-23.68817],[29.31919,-23.6866],[29.31855,-23.68514],[29.31556,-23.68555],[29.3123,-23.68493],[29.30517,-23.68502],[29.30061,-23.68361],[29.29588,-23.68371],[29.2916,-23.68528],[29.29101,-23.68461],[29.28941,-23.6844],[29.2873,-23.68198],[29.28763,-23.68109],[29.28669,-23.68044],[29.28656,-23.679],[29.28718,-23.67816],[29.28845,-23.67917],[29.28907,-23.67896],[29.28916,-23.6773],[29.28869,-23.67496],[29.2892,-23.67361],[29.29028,-23.67272],[29.29017,-23.67227],[29.28946,-23.67191],[29.28923,-23.67111],[29.29058,-23.66988],[29.29196,-23.66779],[29.29244,-23.66347],[29.29093,-23.65963],[29.28973,-23.65828],[29.28967,-23.65678],[29.29054,-23.65482],[29.29057,-23.65395],[29.28962,-23.65096],[29.2881,-23.64954],[29.28858,-23.64793],[29.28702,-23.64566],[29.28686,-23.64451],[29.26655,-23.64272],[29.27634,-23.62232],[29.27115,-23.61605],[29.26254,-23.60217],[29.26285,-23.59807],[29.26519,-23.59091],[29.26513,-23.5873],[29.26467,-23.58561],[29.26502,-23.58409],[29.24461,-23.54646],[29.30021,-23.52949],[29.30678,-23.54248],[29.34804,-23.52716],[29.35125,-23.541]]]}},{"type":"Feature","properties":{"ward":16,"id":"93504016"},"geometry":{"type":"Polygon","coordinates":[[[29.35902,-23.74515],[29.35998,-23.74511],[29.36196,-23.748],[29.36794,-23.75298],[29.3676,-23.75406],[29.36846,-23.75525],[29.3702,-23.75677],[29.37144,-23.75941],[29.37064,-23.75993],[29.37222,-23.76331],[29.37247,-23.76705],[29.37301,-23.76868],[29.37666,-23.77387],[29.37883,-23.77799],[29.38111,-23.78145],[29.38035,-23.78304],[29.37793,-23.78361],[29.37485,-23.78487],[29.37537,-23.78789],[29.37435,-23.79272],[29.37095,-23.79278],[29.37013,-23.7925],[29.36974,-23.79275],[29.37096,-23.79402],[29.37143,-23.79499],[29.37321,-23.79442],[29.37453,-23.79734],[29.37137,-23.79808],[29.37146,-23.79829],[29.37093,-23.79854],[29.36973,-23.79835],[29.36795,-23.79966],[29.36874,-23.80117],[29.36803,-23.80151],[29.36915,-23.8034],[29.37066,-23.80548],[29.37252,-23.80721],[29.37055,-23.80915],[29.36573,-23.80545],[29.36512,-23.80565],[29.36213,-23.80843],[29.35702,-23.80212],[29.35627,-23.80266],[29.35708,-23.80364],[29.35728,-23.80506],[29.35505,-23.8063],[29.3559,-23.80958],[29.35577,-23.81212],[29.3561,-23.81228],[29.3559,-23.81321],[29.35695,-23.81413],[29.35818,-23.814],[29.35896,-23.81489],[29.35961,-23.81507],[29.35994,-23.8163],[29.36052,-23.81693],[29.36038,-23.81716],[29.35668,-23.81798],[29.35481,-23.81878],[29.34737,-23.82329],[29.34535,-23.82402],[29.34304,-23.82434],[29.3471,-23.83118],[29.34776,-23.83375],[29.34934,-23.83496],[29.35105,-23.83809],[29.35163,-23.83845],[29.32738,-23.84443],[29.32524,-23.84412],[29.31338,-23.8407],[29.3117,-23.84116],[29.31018,-23.83995],[29.3081,-23.83927],[29.30788,-23.8358],[29.30957,-23.83315],[29.3097,-23.82966],[29.30795,-23.82283],[29.30621,-23.81881],[29.30536,-23.81559],[29.30475,-23.81438],[29.30347,-23.81327],[29.30349,-23.81288],[29.30428,-23.81144],[29.3039,-23.80974],[29.30535,-23.80684],[29.30546,-23.80602],[29.30711,-23.80489],[29.30808,-23.8035],[29.30962,-23.80216],[29.30976,-23.80136],[29.31109,-23.8005],[29.31116,-23.79994],[29.31258,-23.79782],[29.31279,-23.79271],[29.31371,-23.78993],[29.31574,-23.7876],[29.31727,-23.7838],[29.31735,-23.78329],[29.31649,-23.78151],[29.32355,-23.77701],[29.32405,-23.77605],[29.32405,-23.77427],[29.32468,-23.77277],[29.32478,-23.77122],[29.32614,-23.76959],[29.32648,-23.7686],[29.32548,-23.76483],[29.32674,-23.7633],[29.32755,-23.76391],[29.32881,-23.76311],[29.32911,-23.76222],[29.33093,-23.76036],[29.33278,-23.76],[29.33453,-23.75868],[29.33533,-23.75692],[29.33602,-23.75634],[29.33627,-23.75521],[29.33773,-23.7545],[29.3382,-23.75263],[29.33914,-23.75169],[29.33962,-23.75063],[29.34071,-23.75016],[29.34163,-23.75046],[29.34332,-23.75037],[29.34449,-23.75004],[29.34525,-23.74939],[29.34698,-23.74933],[29.34868,-23.7483],[29.34956,-23.74736],[29.35038,-23.74713],[29.35102,-23.7455],[29.35328,-23.7456],[29.35393,-23.74608],[29.35511,-23.74591],[29.35607,-23.74629],[29.35646,-23.7456],[29.35745,-23.74563],[29.35851,-23.74493],[29.35902,-23.74515]]]}},{"type":"Feature","properties":{"ward":17,"id":"93504017"},"geometry":{"type":"Polygon","coordinates":[[[29.40711,-23.84613],[29.40994,-23.84938],[29.40634,-23.85375],[29.40543,-23.85546],[29.41137,-23.85958],[29.40932,-23.86418],[29.40683,-23.86612],[29.40405,-23.87061],[29.40186,-23.86869],[29.39716,-23.86745],[29.39997,-23.85464],[29.39917,-23.85409],[29.39163,-23.85279],[29.38749,-23.8541],[29.38822,-23.85617],[29.3862,-23.85855],[29.38599,-23.86039],[29.38686,-23.86043],[29.38696,-23.86108],[29.38438,-23.8611],[29.38457,-23.86178],[29.38285,-23.86232],[29.38327,-23.86346],[29.38231,-23.86376],[29.38109,-23.86049],[29.37456,-23.86003],[29.37875,-23.85066],[29.3791,-23.84868],[29.38007,-23.84866],[29.3814,-23.84787],[29.38061,-23.84673],[29.38057,-23.84551],[29.38314,-23.84547],[29.3869,-23.84315],[29.38794,-23.84458],[29.3868,-23.8453],[29.38718,-23.8458],[29.39235,-23.84259],[29.39273,-23.84311],[29.39367,-23.84249],[29.39541,-23.84462],[29.39576,-23.84442],[29.39714,-23.8463],[29.39769,-23.846],[29.39881,-23.8466],[29.40003,-23.84079],[29.40283,-23.84146],[29.40711,-23.84613]]]}},{"type":"Feature","properties":{"ward":18,"id":"93504018"},"geometry":{"type":"Polygon","coordinates":[[[29.28956,-23.68445],[29.29101,-23.68461],[29.2916,-23.68528],[29.29588,-23.68371],[29.30061,-23.68361],[29.30517,-23.68502],[29.3123,-23.68493],[29.31556,-23.68555],[29.31855,-23.68514],[29.31919,-23.6866],[29.31903,-23.68817],[29.31757,-23.68968],[29.31193,-23.69337],[29.31289,-23.69403],[29.31498,-23.69645],[29.32013,-23.699],[29.32262,-23.69965],[29.31693,-23.71576],[29.31761,-23.7158],[29.32288,-23.71146],[29.32949,-23.71198],[29.32907,-23.71556],[29.33246,-23.72987],[29.32509,-23.73176],[29.32308,-23.73185],[29.32179,-23.73391],[29.32827,-23.73894],[29.33093,-23.74343],[29.33021,-23.7486],[29.33627,-23.75521],[29.33602,-23.75634],[29.33533,-23.75692],[29.33453,-23.75868],[29.33278,-23.76],[29.33093,-23.76036],[29.32911,-23.76222],[29.32881,-23.76311],[29.32755,-23.76391],[29.32674,-23.7633],[29.32548,-23.76483],[29.32648,-23.7686],[29.32614,-23.76959],[29.32478,-23.77122],[29.32468,-23.77277],[29.32405,-23.77427],[29.3239,-23.77643],[29.32298,-23.77752],[29.31649,-23.78151],[29.31735,-23.78329],[29.31727,-23.7838],[29.31574,-23.7876],[29.31371,-23.78993],[29.31272,-23.78882],[29.3109,-23.78818],[29.30476,-23.78802],[29.30166,-23.78919],[29.29959,-23.78935],[29.29283,-23.78847],[29.28721,-23.78882],[29.28231,-23.7882],[29.27939,-23.78716],[29.2762,-23.78827],[29.26752,-23.78704],[29.26463,-23.78725],[29.26491,-23.78659],[29.26378,-23.78569],[29.26359,-23.78466],[29.26211,-23.78193],[29.26163,-23.78036],[29.26213,-23.77974],[29.26239,-23.7768],[29.26343,-23.77533],[29.26412,-23.77317],[29.26559,-23.77153],[29.26948,-23.76954],[29.27051,-23.76747],[29.27051,-23.76531],[29.27207,-23.76349],[29.27423,-23.76237],[29.27587,-23.76038],[29.27712,-23.7604],[29.27913,-23.75895],[29.28233,-23.75864],[29.28582,-23.75761],[29.29183,-23.75198],[29.29418,-23.75136],[29.29345,-23.74925],[29.29229,-23.74759],[29.29225,-23.74669],[29.29004,-23.74672],[29.28208,-23.74782],[29.2807,-23.74515],[29.27886,-23.7454],[29.27895,-23.74578],[29.27712,-23.74603],[29.27732,-23.74652],[29.27451,-23.74703],[29.2748,-23.74779],[29.27151,-23.74677],[29.26208,-23.73764],[29.2642,-23.73728],[29.26696,-23.73604],[29.26799,-23.73521],[29.26803,-23.73291],[29.26952,-23.72925],[29.2713,-23.72697],[29.27412,-23.72521],[29.27469,-23.72246],[29.27407,-23.71816],[29.27435,-23.71591],[29.27631,-23.71446],[29.27725,-23.71283],[29.27743,-23.71197],[29.27719,-23.70991],[29.27818,-23.70711],[29.28065,-23.70456],[29.28278,-23.70155],[29.2851,-23.69907],[29.28707,-23.69445],[29.28725,-23.69265],[29.2865,-23.69119],[29.28751,-23.68936],[29.28794,-23.68749],[29.28682,-23.68547],[29.28667,-23.68313],[29.28742,-23.682],[29.28956,-23.68445]]]}},{"type":"Feature","properties":{"ward":19,"id":"93504019"},"geometry":{"type":"Polygon","coordinates":[[[29.43969,-23.89945],[29.44183,-23.90461],[29.44204,-23.90579],[29.44317,-23.90643],[29.44586,-23.90591],[29.44815,-23.91547],[29.44974,-23.91899],[29.43849,-23.92124],[29.43791,-23.92059],[29.43069,-23.92641],[29.42368,-23.919],[29.42196,-23.92111],[29.41823,-23.91943],[29.41651,-23.91912],[29.41587,-23.91746],[29.41428,-23.91614],[29.41416,-23.91568],[29.41456,-23.91512],[29.4013,-23.90887],[29.41438,-23.90388],[29.4171,-23.90026],[29.41844,-23.90044],[29.42576,-23.89972],[29.42748,-23.89982],[29.42698,-23.89865],[29.4262,-23.89817],[29.42607,-23.89764],[29.42702,-23.89441],[29.42817,-23.89291],[29.42777,-23.88963],[29.42802,-23.88908],[29.42863,-23.88895],[29.42877,-23.88673],[29.4371,-23.89295],[29.4377,-23.89381],[29.43821,-23.89592],[29.43969,-23.89945]]]}},{"type":"Feature","properties":{"ward":20,"id":"93504020"},"geometry":{"type":"Polygon","coordinates":[[[29.5145,-23.9071],[29.5117,-23.91836],[29.49563,-23.93878],[29.49724,-23.94102],[29.49185,-23.94554],[29.49301,-23.94689],[29.48606,-23.95118],[29.48381,-23.95475],[29.48328,-23.9551],[29.48285,-23.95681],[29.4816,-23.95654],[29.48055,-23.95673],[29.47922,-23.95817],[29.48091,-23.96051],[29.48214,-23.96311],[29.48211,-23.96854],[29.48096,-23.96905],[29.47612,-23.96977],[29.47351,-23.96921],[29.46749,-23.97581],[29.45205,-23.95908],[29.4494,-23.94484],[29.44915,-23.93776],[29.44969,-23.93312],[29.45244,-23.92247],[29.45232,-23.92078],[29.4707,-23.91714],[29.47105,-23.91864],[29.47055,-23.9208],[29.47228,-23.92113],[29.47251,-23.92236],[29.47307,-23.92321],[29.47636,-23.92032],[29.47643,-23.91876],[29.4791,-23.9193],[29.48171,-23.91867],[29.482,-23.91737],[29.48419,-23.91779],[29.48792,-23.91776],[29.48802,-23.91601],[29.48581,-23.91535],[29.48336,-23.91363],[29.48315,-23.91318],[29.48045,-23.91413],[29.48038,-23.91438],[29.47949,-23.9142],[29.47953,-23.91324],[29.48265,-23.9124],[29.48194,-23.91031],[29.48102,-23.9105],[29.48077,-23.90947],[29.48103,-23.90772],[29.47842,-23.9082],[29.47816,-23.90707],[29.47829,-23.90472],[29.47868,-23.90404],[29.50257,-23.89949],[29.51023,-23.89877],[29.51662,-23.89856],[29.5145,-23.9071]]]}},{"type":"Feature","properties":{"ward":21,"id":"93504021"},"geometry":{"type":"Polygon","coordinates":[[[29.52352,-23.88832],[29.51729,-23.8963],[29.51662,-23.89856],[29.51023,-23.89877],[29.50257,-23.89949],[29.47868,-23.90404],[29.47829,-23.90472],[29.47818,-23.90648],[29.47024,-23.90801],[29.46766,-23.89697],[29.46819,-23.89661],[29.46868,-23.89716],[29.47296,-23.89416],[29.47188,-23.89283],[29.47594,-23.89121],[29.48085,-23.88746],[29.48397,-23.88578],[29.48493,-23.88445],[29.49102,-23.88814],[29.49205,-23.88927],[29.4998,-23.88292],[29.48531,-23.87153],[29.48245,-23.8698],[29.48472,-23.86879],[29.50365,-23.84997],[29.50737,-23.84848],[29.51322,-23.84082],[29.52061,-23.83296],[29.53454,-23.81674],[29.53975,-23.81243],[29.54733,-23.80526],[29.56312,-23.83665],[29.52352,-23.88832]]]}},{"type":"Feature","properties":{"ward":22,"id":"93504022"},"geometry":{"type":"Polygon","coordinates":[[[29.46971,-23.9058],[29.47024,-23.90801],[29.47818,-23.90648],[29.47842,-23.9082],[29.48103,-23.90772],[29.48077,-23.90947],[29.48102,-23.9105],[29.48194,-23.91031],[29.48265,-23.9124],[29.47953,-23.91324],[29.47949,-23.9142],[29.48038,-23.91438],[29.48045,-23.91413],[29.48315,-23.91318],[29.48336,-23.91363],[29.48581,-23.91535],[29.48802,-23.91601],[29.48792,-23.91776],[29.48419,-23.91779],[29.482,-23.91737],[29.48171,-23.91867],[29.4791,-23.9193],[29.47643,-23.91876],[29.47636,-23.92032],[29.47307,-23.92321],[29.47251,-23.92236],[29.47228,-23.92113],[29.47055,-23.9208],[29.47105,-23.91864],[29.4707,-23.91714],[29.45232,-23.92078],[29.45244,-23.92247],[29.44969,-23.93312],[29.44915,-23.93776],[29.4494,-23.94484],[29.45205,-23.95908],[29.42491,-23.94942],[29.42257,-23.94485],[29.41973,-23.94006],[29.41771,-23.93739],[29.41138,-23.92607],[29.41258,-23.92434],[29.41309,-23.92281],[29.41413,-23.92114],[29.41595,-23.92034],[29.41651,-23.91912],[29.41823,-23.91943],[29.42196,-23.92111],[29.42368,-23.919],[29.43069,-23.92641],[29.43791,-23.92059],[29.43849,-23.92124],[29.44974,-23.91899],[29.44815,-23.91547],[29.44688,-23.91032],[29.46464,-23.9068],[29.46412,-23.90458],[29.4692,-23.90359],[29.46971,-23.9058]]]}},{"type":"Feature","properties":{"ward":23,"id":"93504023"},"geometry":{"type":"Polygon","coordinates":[[[29.5322,-23.78088],[29.53825,-23.7955],[29.54157,-23.79066],[29.54733,-23.80526],[29.53975,-23.81243],[29.53454,-23.81674],[29.52061,-23.83296],[29.51322,-23.84082],[29.50737,-23.84848],[29.50365,-23.84997],[29.48472,-23.86879],[29.48245,-23.8698],[29.48531,-23.87153],[29.4998,-23.88292],[29.49205,-23.88927],[29.49102,-23.88814],[29.48493,-23.88445],[29.48397,-23.88578],[29.48085,-23.88746],[29.47594,-23.89121],[29.47312,-23.87939],[29.47116,-23.88031],[29.4701,-23.87639],[29.45963,-23.87957],[29.45638,-23.88006],[29.45491,-23.88082],[29.4496,-23.88542],[29.44765,-23.88781],[29.44516,-23.89016],[29.44477,-23.89125],[29.44573,-23.90003],[29.44481,-23.90113],[29.44075,-23.90197],[29.43821,-23.89592],[29.4377,-23.89381],[29.4371,-23.89295],[29.42288,-23.88227],[29.41928,-23.87836],[29.42368,-23.87323],[29.42509,-23.87314],[29.42584,-23.87015],[29.43338,-23.87243],[29.43635,-23.86964],[29.43005,-23.86077],[29.42855,-23.85022],[29.43504,-23.85615],[29.43659,-23.85522],[29.43664,-23.85366],[29.43583,-23.85185],[29.43582,-23.85113],[29.43748,-23.84849],[29.43934,-23.84418],[29.43914,-23.8408],[29.43823,-23.83904],[29.43824,-23.83848],[29.43934,-23.83738],[29.44269,-23.83549],[29.4429,-23.83448],[29.44247,-23.83269],[29.44351,-23.82985],[29.45714,-23.83005],[29.50076,-23.81136],[29.51004,-23.80187],[29.51172,-23.80299],[29.5151,-23.80041],[29.51304,-23.79893],[29.53212,-23.78054],[29.5322,-23.78088]]]}},{"type":"Feature","properties":{"ward":24,"id":"93504024"},"geometry":{"type":"Polygon","coordinates":[[[29.6796,-23.79357],[29.68034,-23.79357],[29.6851,-23.80591],[29.69031,-23.80281],[29.69249,-23.80195],[29.6989,-23.7985],[29.70049,-23.79807],[29.71185,-23.81399],[29.70207,-23.81736],[29.69115,-23.82168],[29.65076,-23.83373],[29.67116,-23.86161],[29.66999,-23.86468],[29.66804,-23.8642],[29.66674,-23.86424],[29.66637,-23.86434],[29.66649,-23.86514],[29.6651,-23.86619],[29.66042,-23.86717],[29.66043,-23.869],[29.65996,-23.87107],[29.66012,-23.87414],[29.66087,-23.87466],[29.66221,-23.87469],[29.66324,-23.87397],[29.6642,-23.87491],[29.65985,-23.87808],[29.6593,-23.87746],[29.65835,-23.87765],[29.64928,-23.88111],[29.64886,-23.88201],[29.64647,-23.88086],[29.64222,-23.8809],[29.62116,-23.88711],[29.62171,-23.88654],[29.59509,-23.84915],[29.60148,-23.83036],[29.61521,-23.82987],[29.59704,-23.77769],[29.6483,-23.76098],[29.64979,-23.76276],[29.65224,-23.76467],[29.65427,-23.7672],[29.65743,-23.7688],[29.65915,-23.77061],[29.66039,-23.77142],[29.66084,-23.77327],[29.66168,-23.77439],[29.66223,-23.77759],[29.66344,-23.77919],[29.66668,-23.78168],[29.66902,-23.78252],[29.66993,-23.7841],[29.67147,-23.78527],[29.67325,-23.7877],[29.67505,-23.78951],[29.67618,-23.79117],[29.67642,-23.79236],[29.67785,-23.79263],[29.6796,-23.79357]]]}},{"type":"Feature","properties":{"ward":25,"id":"93504025"},"geometry":{"type":"Polygon","coordinates":[[[29.70564,-23.86824],[29.70631,-23.86865],[29.707,-23.8671],[29.71019,-23.86667],[29.71174,-23.87031],[29.71467,-23.87312],[29.72361,-23.87248],[29.7284,-23.87964],[29.72861,-23.88133],[29.73271,-23.88093],[29.73338,-23.88641],[29.72966,-23.88681],[29.72958,-23.88628],[29.72583,-23.88671],[29.72511,-23.88602],[29.72295,-23.88811],[29.72163,-23.89156],[29.72265,-23.89381],[29.72222,-23.89507],[29.69209,-23.88631],[29.68979,-23.88609],[29.68612,-23.88662],[29.68519,-23.8848],[29.687,-23.88349],[29.68897,-23.88082],[29.69122,-23.87921],[29.69294,-23.87739],[29.69586,-23.87562],[29.69705,-23.87374],[29.69925,-23.87156],[29.70294,-23.8663],[29.70564,-23.86824]]]}},{"type":"Feature","properties":{"ward":26,"id":"93504026"},"geometry":{"type":"Polygon","coordinates":[[[29.74374,-23.88555],[29.74379,-23.88589],[29.74638,-23.88472],[29.75087,-23.88426],[29.74889,-23.90222],[29.74914,-23.90271],[29.72222,-23.89507],[29.72265,-23.89381],[29.72163,-23.89156],[29.72295,-23.88811],[29.72511,-23.88602],[29.72583,-23.88671],[29.72958,-23.88628],[29.72966,-23.88681],[29.73338,-23.88641],[29.73271,-23.88093],[29.74371,-23.8798],[29.74374,-23.88555]]]}},{"type":"Feature","properties":{"ward":27,"id":"93504027"},"geometry":{"type":"Polygon","coordinates":[[[29.68979,-23.88609],[29.69209,-23.88631],[29.73948,-23.89999],[29.74102,-23.90589],[29.74086,-23.90694],[29.74192,-23.91185],[29.74747,-23.91107],[29.74942,-23.91208],[29.74862,-23.91302],[29.74864,-23.91422],[29.74826,-23.91537],[29.74749,-23.91619],[29.74096,-23.91502],[29.74082,-23.92915],[29.74106,-23.93557],[29.72672,-23.9307],[29.72623,-23.92873],[29.72636,-23.92797],[29.72571,-23.92683],[29.72566,-23.92541],[29.72672,-23.92413],[29.72718,-23.92062],[29.72655,-23.91886],[29.72577,-23.91801],[29.71888,-23.91777],[29.71662,-23.9169],[29.71641,-23.91526],[29.70903,-23.91616],[29.70969,-23.92198],[29.70645,-23.9237],[29.70438,-23.91894],[29.70068,-23.92038],[29.70106,-23.92386],[29.70139,-23.92449],[29.69875,-23.92534],[29.69752,-23.92426],[29.69501,-23.9229],[29.67851,-23.90802],[29.68076,-23.90545],[29.69683,-23.90687],[29.68612,-23.88662],[29.68979,-23.88609]]]}},{"type":"Feature","properties":{"ward":28,"id":"93504028"},"geometry":{"type":"Polygon","coordinates":[[[29.84426,-23.8761],[29.84535,-23.87607],[29.84604,-23.87571],[29.85032,-23.89957],[29.85294,-23.89899],[29.85547,-23.8977],[29.85733,-23.89762],[29.86287,-23.89617],[29.86591,-23.89644],[29.86938,-23.8978],[29.87185,-23.89746],[29.87461,-23.89752],[29.87597,-23.8964],[29.88296,-23.89438],[29.88759,-23.89421],[29.89085,-23.89467],[29.89627,-23.8935],[29.89637,-23.89485],[29.89699,-23.89645],[29.89655,-23.89872],[29.89425,-23.90024],[29.89341,-23.90165],[29.89211,-23.90242],[29.88987,-23.90485],[29.88948,-23.9062],[29.88957,-23.90811],[29.88786,-23.90988],[29.8874,-23.91118],[29.88608,-23.91219],[29.88507,-23.91385],[29.88073,-23.9149],[29.87907,-23.91576],[29.87852,-23.91644],[29.87569,-23.91778],[29.87317,-23.9175],[29.87168,-23.91797],[29.87032,-23.9176],[29.86703,-23.91885],[29.866,-23.91869],[29.86097,-23.91976],[29.85813,-23.9213],[29.85573,-23.92095],[29.85444,-23.9219],[29.85455,-23.92228],[29.85299,-23.92313],[29.85223,-23.92444],[29.85243,-23.92565],[29.85204,-23.92599],[29.84915,-23.9261],[29.84792,-23.92551],[29.84644,-23.92582],[29.8439,-23.92467],[29.84312,-23.92479],[29.83811,-23.92856],[29.83413,-23.92944],[29.8325,-23.93012],[29.83185,-23.93094],[29.83138,-23.93246],[29.82903,-23.934],[29.82914,-23.93607],[29.82891,-23.93635],[29.82576,-23.93754],[29.82515,-23.93862],[29.82158,-23.94137],[29.82018,-23.94155],[29.8193,-23.94114],[29.81678,-23.94093],[29.81346,-23.94184],[29.81195,-23.94195],[29.81041,-23.94062],[29.80875,-23.93682],[29.80852,-23.93499],[29.80946,-23.93264],[29.80418,-23.9309],[29.80182,-23.92896],[29.80041,-23.92901],[29.79884,-23.92874],[29.79871,-23.92848],[29.79741,-23.92921],[29.79512,-23.92937],[29.79517,-23.92809],[29.79404,-23.92775],[29.79404,-23.92712],[29.7925,-23.92742],[29.79142,-23.92656],[29.78975,-23.92644],[29.78886,-23.92707],[29.78779,-23.92732],[29.78756,-23.92791],[29.78679,-23.92835],[29.78462,-23.92864],[29.78297,-23.92924],[29.78205,-23.93019],[29.78199,-23.93081],[29.77734,-23.92791],[29.77191,-23.92547],[29.77012,-23.92307],[29.76537,-23.92001],[29.76396,-23.92169],[29.76246,-23.92231],[29.75909,-23.92595],[29.76003,-23.94187],[29.74106,-23.93557],[29.74082,-23.92915],[29.74096,-23.91502],[29.74749,-23.91619],[29.74826,-23.91537],[29.74864,-23.91422],[29.74862,-23.91302],[29.74942,-23.91208],[29.74747,-23.91107],[29.74192,-23.91185],[29.74086,-23.90694],[29.74102,-23.90589],[29.73948,-23.89999],[29.77138,-23.90911],[29.78613,-23.91376],[29.78897,-23.91528],[29.79169,-23.91759],[29.79194,-23.91543],[29.79154,-23.91493],[29.7921,-23.91444],[29.79171,-23.91374],[29.79252,-23.91134],[29.79361,-23.90987],[29.79616,-23.90876],[29.79668,-23.90832],[29.79647,-23.90801],[29.79687,-23.90784],[29.79711,-23.90721],[29.79797,-23.90709],[29.79981,-23.90534],[29.80084,-23.90489],[29.8028,-23.90488],[29.80285,-23.90463],[29.8039,-23.90484],[29.80494,-23.90443],[29.80575,-23.90471],[29.80552,-23.90388],[29.80875,-23.9021],[29.80924,-23.90354],[29.81312,-23.9019],[29.81779,-23.90407],[29.81914,-23.90364],[29.84306,-23.8774],[29.84281,-23.8757],[29.84426,-23.8761]]]}},{"type":"Feature","properties":{"ward":29,"id":"93504029"},"geometry":{"type":"Polygon","coordinates":[[[29.80636,-23.74749],[29.81117,-23.75502],[29.82951,-23.77018],[29.83619,-23.79024],[29.86376,-23.78074],[29.8459,-23.81413],[29.84357,-23.81268],[29.83953,-23.8126],[29.83911,-23.81107],[29.83821,-23.81077],[29.83766,-23.81096],[29.83736,-23.81186],[29.83693,-23.81211],[29.8354,-23.81219],[29.83324,-23.81289],[29.83119,-23.81436],[29.82639,-23.81471],[29.83129,-23.82308],[29.82829,-23.82395],[29.82178,-23.82497],[29.82044,-23.82541],[29.82009,-23.8259],[29.81905,-23.82636],[29.81798,-23.82653],[29.81784,-23.82703],[29.81726,-23.82702],[29.8157,-23.82792],[29.81541,-23.82844],[29.81543,-23.8297],[29.81389,-23.83166],[29.81233,-23.83261],[29.81088,-23.83305],[29.81008,-23.83293],[29.80897,-23.83345],[29.80863,-23.83342],[29.8084,-23.83267],[29.80672,-23.83285],[29.8051,-23.83254],[29.80212,-23.83329],[29.80006,-23.8332],[29.79767,-23.83398],[29.79638,-23.83387],[29.79621,-23.83343],[29.79559,-23.83325],[29.79303,-23.83426],[29.7931,-23.83275],[29.7919,-23.83062],[29.78883,-23.82871],[29.78516,-23.8279],[29.78571,-23.82638],[29.77958,-23.82124],[29.77564,-23.82237],[29.77547,-23.81929],[29.77388,-23.81953],[29.77298,-23.81938],[29.77245,-23.8189],[29.77108,-23.81884],[29.76921,-23.81944],[29.76628,-23.81931],[29.76366,-23.82008],[29.76125,-23.81999],[29.75764,-23.81851],[29.75669,-23.81703],[29.75133,-23.8188],[29.74588,-23.82123],[29.74307,-23.82153],[29.7426,-23.82129],[29.74099,-23.81892],[29.7333,-23.80524],[29.71185,-23.81399],[29.69558,-23.79118],[29.70107,-23.79172],[29.70386,-23.79326],[29.70465,-23.79339],[29.70809,-23.79319],[29.71242,-23.79227],[29.71478,-23.79256],[29.71774,-23.79153],[29.71861,-23.79155],[29.72082,-23.792],[29.72318,-23.79401],[29.72583,-23.79546],[29.72693,-23.79566],[29.72927,-23.79726],[29.7329,-23.79755],[29.73555,-23.79724],[29.73857,-23.79632],[29.74527,-23.79305],[29.74594,-23.79202],[29.74849,-23.79038],[29.7564,-23.78156],[29.75572,-23.77945],[29.77356,-23.77159],[29.77454,-23.75931],[29.7786,-23.7585],[29.77933,-23.75798],[29.78019,-23.75628],[29.78399,-23.75787],[29.78419,-23.75727],[29.78599,-23.75719],[29.78585,-23.75598],[29.78686,-23.75402],[29.78603,-23.75298],[29.78942,-23.75093],[29.79021,-23.75069],[29.79123,-23.75173],[29.79674,-23.74957],[29.80281,-23.74913],[29.80636,-23.74749]]]}},{"type":"Feature","properties":{"ward":30,"id":"93504030"},"geometry":{"type":"Polygon","coordinates":[[[29.90701,-23.8134],[29.87909,-23.82285],[29.89679,-23.82765],[29.88652,-23.85512],[29.88475,-23.86224],[29.88294,-23.86255],[29.88084,-23.86241],[29.87956,-23.86358],[29.879,-23.86373],[29.87735,-23.86336],[29.87518,-23.86391],[29.87169,-23.8628],[29.87102,-23.86285],[29.87034,-23.86354],[29.86949,-23.86377],[29.86725,-23.86376],[29.86567,-23.86276],[29.86397,-23.86076],[29.86195,-23.8598],[29.86064,-23.85836],[29.86051,-23.85776],[29.85953,-23.85739],[29.8595,-23.8569],[29.85832,-23.85627],[29.85795,-23.85686],[29.85813,-23.85835],[29.8579,-23.85928],[29.8565,-23.86253],[29.85515,-23.86449],[29.85356,-23.86588],[29.85317,-23.8642],[29.85152,-23.86375],[29.85095,-23.86215],[29.85126,-23.86148],[29.8507,-23.86104],[29.85068,-23.86028],[29.84772,-23.85928],[29.84716,-23.85982],[29.84761,-23.86055],[29.84686,-23.86336],[29.84383,-23.86281],[29.84025,-23.86309],[29.83687,-23.86278],[29.83564,-23.8632],[29.83522,-23.86427],[29.83367,-23.86542],[29.82999,-23.86337],[29.82816,-23.86382],[29.82358,-23.86364],[29.82237,-23.86462],[29.82146,-23.86489],[29.81796,-23.86361],[29.81644,-23.86532],[29.81639,-23.86477],[29.81578,-23.86483],[29.81472,-23.86504],[29.8149,-23.86555],[29.81462,-23.86581],[29.81332,-23.86579],[29.81222,-23.86518],[29.80971,-23.86747],[29.80896,-23.87003],[29.80798,-23.86992],[29.80628,-23.87074],[29.8062,-23.87132],[29.80566,-23.87154],[29.80413,-23.87335],[29.80176,-23.87417],[29.80071,-23.87548],[29.79926,-23.87617],[29.79698,-23.8766],[29.79687,-23.8778],[29.79627,-23.87853],[29.79545,-23.87829],[29.79443,-23.87904],[29.79313,-23.87853],[29.79217,-23.87884],[29.79125,-23.88019],[29.78895,-23.8813],[29.78785,-23.88241],[29.78444,-23.88298],[29.78279,-23.88287],[29.78207,-23.8824],[29.78047,-23.88214],[29.77185,-23.88565],[29.76898,-23.88641],[29.7659,-23.88667],[29.76348,-23.88605],[29.7618,-23.88601],[29.76003,-23.88665],[29.75928,-23.88601],[29.75883,-23.88492],[29.7576,-23.88343],[29.75734,-23.88237],[29.7566,-23.88163],[29.7557,-23.87878],[29.75626,-23.87681],[29.75597,-23.87639],[29.75614,-23.8757],[29.7559,-23.87516],[29.75623,-23.87435],[29.75586,-23.87198],[29.75622,-23.87174],[29.75585,-23.87128],[29.75609,-23.87075],[29.7555,-23.8703],[29.75505,-23.8691],[29.75525,-23.86856],[29.75266,-23.86592],[29.75194,-23.86427],[29.74994,-23.8637],[29.74918,-23.86397],[29.7486,-23.86366],[29.74747,-23.86072],[29.74843,-23.85928],[29.74842,-23.85807],[29.75034,-23.85827],[29.75212,-23.85709],[29.75316,-23.85687],[29.75644,-23.85652],[29.75841,-23.85682],[29.75974,-23.85614],[29.76073,-23.85625],[29.76172,-23.8569],[29.76263,-23.85631],[29.76552,-23.85659],[29.76628,-23.85625],[29.7679,-23.85684],[29.76945,-23.8568],[29.77025,-23.85646],[29.77093,-23.85698],[29.77149,-23.85697],[29.77014,-23.85221],[29.76926,-23.85223],[29.74371,-23.8411],[29.72679,-23.83276],[29.72568,-23.83183],[29.72303,-23.82814],[29.72117,-23.82872],[29.71988,-23.82532],[29.71185,-23.81399],[29.7333,-23.80524],[29.74099,-23.81892],[29.7426,-23.82129],[29.74307,-23.82153],[29.74588,-23.82123],[29.75133,-23.8188],[29.75669,-23.81703],[29.75764,-23.81851],[29.76125,-23.81999],[29.76366,-23.82008],[29.76628,-23.81931],[29.76921,-23.81944],[29.77108,-23.81884],[29.77245,-23.8189],[29.77298,-23.81938],[29.77388,-23.81953],[29.77547,-23.81929],[29.77564,-23.82237],[29.77958,-23.82124],[29.78571,-23.82638],[29.78516,-23.8279],[29.78883,-23.82871],[29.7919,-23.83062],[29.7931,-23.83275],[29.79303,-23.83426],[29.79559,-23.83325],[29.79621,-23.83343],[29.79638,-23.83387],[29.79767,-23.83398],[29.80006,-23.8332],[29.80212,-23.83329],[29.8051,-23.83254],[29.80672,-23.83285],[29.8084,-23.83267],[29.80863,-23.83342],[29.80897,-23.83345],[29.81008,-23.83293],[29.81088,-23.83305],[29.81233,-23.83261],[29.81389,-23.83166],[29.81543,-23.8297],[29.81541,-23.82844],[29.8157,-23.82792],[29.81726,-23.82702],[29.81784,-23.82703],[29.81798,-23.82653],[29.81905,-23.82636],[29.82009,-23.8259],[29.82044,-23.82541],[29.82178,-23.82497],[29.82829,-23.82395],[29.83129,-23.82308],[29.82639,-23.81471],[29.83119,-23.81436],[29.83324,-23.81289],[29.8354,-23.81219],[29.83693,-23.81211],[29.83736,-23.81186],[29.83766,-23.81096],[29.83821,-23.81077],[29.83911,-23.81107],[29.83953,-23.8126],[29.84357,-23.81268],[29.8459,-23.81413],[29.87109,-23.76726],[29.87897,-23.75335],[29.88808,-23.74232],[29.88838,-23.7416],[29.91815,-23.76024],[29.91452,-23.773],[29.92818,-23.79768],[29.90701,-23.8134]]]}},{"type":"Feature","properties":{"ward":31,"id":"93504031"},"geometry":{"type":"Polygon","coordinates":[[[29.72103,-23.82807],[29.72117,-23.82872],[29.72303,-23.82814],[29.72614,-23.83231],[29.72963,-23.83421],[29.74371,-23.8411],[29.76926,-23.85223],[29.77014,-23.85221],[29.77149,-23.85697],[29.77093,-23.85698],[29.77025,-23.85646],[29.76945,-23.8568],[29.7679,-23.85684],[29.76628,-23.85625],[29.76552,-23.85659],[29.76263,-23.85631],[29.76172,-23.8569],[29.76073,-23.85625],[29.75974,-23.85614],[29.75841,-23.85682],[29.75644,-23.85652],[29.75316,-23.85687],[29.75212,-23.85709],[29.75034,-23.85827],[29.74842,-23.85807],[29.74843,-23.85928],[29.74747,-23.86072],[29.7486,-23.86366],[29.74918,-23.86397],[29.74994,-23.8637],[29.75194,-23.86427],[29.75266,-23.86592],[29.75525,-23.86856],[29.75505,-23.8691],[29.7555,-23.8703],[29.75609,-23.87075],[29.75585,-23.87128],[29.75622,-23.87174],[29.75586,-23.87198],[29.75623,-23.87435],[29.7559,-23.87516],[29.75614,-23.8757],[29.75597,-23.87639],[29.75626,-23.87681],[29.7557,-23.87878],[29.7566,-23.88163],[29.75734,-23.88237],[29.7576,-23.88343],[29.75883,-23.88492],[29.75928,-23.88601],[29.76003,-23.88665],[29.7618,-23.88601],[29.76348,-23.88605],[29.76536,-23.88665],[29.76691,-23.88662],[29.76965,-23.88628],[29.77305,-23.88523],[29.77461,-23.89082],[29.77446,-23.89252],[29.77497,-23.89485],[29.7704,-23.89612],[29.77096,-23.89766],[29.76635,-23.89899],[29.76705,-23.90112],[29.77399,-23.8991],[29.77467,-23.90162],[29.77308,-23.90648],[29.77251,-23.90634],[29.77232,-23.90701],[29.77092,-23.90661],[29.77024,-23.90879],[29.74914,-23.90271],[29.74889,-23.90222],[29.75087,-23.88426],[29.74638,-23.88472],[29.74379,-23.88589],[29.74371,-23.8798],[29.72861,-23.88133],[29.7284,-23.87964],[29.72361,-23.87248],[29.71467,-23.87312],[29.71174,-23.87031],[29.71019,-23.86667],[29.707,-23.8671],[29.70631,-23.86865],[29.70294,-23.8663],[29.69925,-23.87156],[29.69705,-23.87374],[29.69586,-23.87562],[29.69294,-23.87739],[29.69122,-23.87921],[29.68897,-23.88082],[29.687,-23.88349],[29.68519,-23.8848],[29.67758,-23.87037],[29.65076,-23.83373],[29.69115,-23.82168],[29.70207,-23.81736],[29.71185,-23.81399],[29.71938,-23.82453],[29.72103,-23.82807]]]}},{"type":"Feature","properties":{"ward":32,"id":"93504032"},"geometry":{"type":"Polygon","coordinates":[[[29.74753,-23.79093],[29.74594,-23.79202],[29.74527,-23.79305],[29.74042,-23.7952],[29.73922,-23.79606],[29.73555,-23.79724],[29.7329,-23.79755],[29.7316,-23.7973],[29.73013,-23.79745],[29.7289,-23.7971],[29.72693,-23.79566],[29.72583,-23.79546],[29.72318,-23.79401],[29.72057,-23.79188],[29.71774,-23.79153],[29.71478,-23.79256],[29.71242,-23.79227],[29.70809,-23.79319],[29.70465,-23.79339],[29.70386,-23.79326],[29.70107,-23.79172],[29.69592,-23.79105],[29.69558,-23.79118],[29.70049,-23.79807],[29.6989,-23.7985],[29.69249,-23.80195],[29.69031,-23.80281],[29.6851,-23.80591],[29.68034,-23.79357],[29.6792,-23.7935],[29.67785,-23.79263],[29.67642,-23.79236],[29.67618,-23.79117],[29.67505,-23.78951],[29.67325,-23.7877],[29.67147,-23.78527],[29.66993,-23.7841],[29.66902,-23.78252],[29.66668,-23.78168],[29.66344,-23.77919],[29.66223,-23.77759],[29.66168,-23.77439],[29.66084,-23.77327],[29.66039,-23.77142],[29.65915,-23.77061],[29.65743,-23.7688],[29.65427,-23.7672],[29.65224,-23.76467],[29.64979,-23.76276],[29.6483,-23.76098],[29.66566,-23.75536],[29.67598,-23.75133],[29.73621,-23.71603],[29.7564,-23.78156],[29.74849,-23.79038],[29.74753,-23.79093]]]}},{"type":"Feature","properties":{"ward":33,"id":"93504033"},"geometry":{"type":"Polygon","coordinates":[[[29.89078,-23.72624],[29.88969,-23.73008],[29.88838,-23.7416],[29.88808,-23.74232],[29.87897,-23.75335],[29.86376,-23.78074],[29.83619,-23.79024],[29.82951,-23.77018],[29.81117,-23.75502],[29.80636,-23.74749],[29.80281,-23.74913],[29.79674,-23.74957],[29.79123,-23.75173],[29.79021,-23.75069],[29.78942,-23.75093],[29.78603,-23.75298],[29.78686,-23.75402],[29.78585,-23.75598],[29.78599,-23.75719],[29.78419,-23.75727],[29.78399,-23.75787],[29.78019,-23.75628],[29.77933,-23.75798],[29.7786,-23.7585],[29.77454,-23.75931],[29.77356,-23.77159],[29.75572,-23.77945],[29.73621,-23.71603],[29.73978,-23.69956],[29.79523,-23.68083],[29.81513,-23.70991],[29.8258,-23.72681],[29.84566,-23.69615],[29.88792,-23.67942],[29.89457,-23.71274],[29.89078,-23.72624]]]}},{"type":"Feature","properties":{"ward":34,"id":"93504034"},"geometry":{"type":"Polygon","coordinates":[[[29.89731,-23.8622],[29.89785,-23.86263],[29.89618,-23.86539],[29.89579,-23.86811],[29.89514,-23.86974],[29.89444,-23.86982],[29.89406,-23.87025],[29.89431,-23.87188],[29.89358,-23.8722],[29.89334,-23.87386],[29.89421,-23.88012],[29.89535,-23.88247],[29.89517,-23.88371],[29.89615,-23.88491],[29.8954,-23.88617],[29.89552,-23.88769],[29.89524,-23.88842],[29.89561,-23.8892],[29.89578,-23.89107],[29.89644,-23.89202],[29.89627,-23.8935],[29.89085,-23.89467],[29.88759,-23.89421],[29.88296,-23.89438],[29.87597,-23.8964],[29.87461,-23.89752],[29.87185,-23.89746],[29.86938,-23.8978],[29.86591,-23.89644],[29.86287,-23.89617],[29.85733,-23.89762],[29.85547,-23.8977],[29.85294,-23.89899],[29.85032,-23.89957],[29.84604,-23.87571],[29.84472,-23.8762],[29.84281,-23.8757],[29.84306,-23.8774],[29.81914,-23.90364],[29.81779,-23.90407],[29.81312,-23.9019],[29.80924,-23.90354],[29.80875,-23.9021],[29.80552,-23.90388],[29.80575,-23.90471],[29.80494,-23.90443],[29.8039,-23.90484],[29.80285,-23.90463],[29.8028,-23.90488],[29.80084,-23.90489],[29.79981,-23.90534],[29.79797,-23.90709],[29.79711,-23.90721],[29.79687,-23.90784],[29.79647,-23.90801],[29.79668,-23.90832],[29.79616,-23.90876],[29.79361,-23.90987],[29.79252,-23.91134],[29.79171,-23.91374],[29.7921,-23.91444],[29.79154,-23.91493],[29.79194,-23.91543],[29.79169,-23.91759],[29.78897,-23.91528],[29.78613,-23.91376],[29.77024,-23.90879],[29.77092,-23.90661],[29.77232,-23.90701],[29.77251,-23.90634],[29.77308,-23.90648],[29.77467,-23.90162],[29.77399,-23.8991],[29.76705,-23.90112],[29.76635,-23.89899],[29.77096,-23.89766],[29.7704,-23.89612],[29.77497,-23.89485],[29.77446,-23.89252],[29.77461,-23.89082],[29.77305,-23.88523],[29.78047,-23.88214],[29.78207,-23.8824],[29.78279,-23.88287],[29.78444,-23.88298],[29.78785,-23.88241],[29.78895,-23.8813],[29.79125,-23.88019],[29.79217,-23.87884],[29.79313,-23.87853],[29.79443,-23.87904],[29.79545,-23.87829],[29.79627,-23.87853],[29.79687,-23.8778],[29.79698,-23.8766],[29.79926,-23.87617],[29.80071,-23.87548],[29.80176,-23.87417],[29.80413,-23.87335],[29.80566,-23.87154],[29.8062,-23.87132],[29.80628,-23.87074],[29.80798,-23.86992],[29.80896,-23.87003],[29.80971,-23.86747],[29.81222,-23.86518],[29.81332,-23.86579],[29.81462,-23.86581],[29.81489,-23.86497],[29.81631,-23.86476],[29.81635,-23.86528],[29.81659,-23.86527],[29.81815,-23.86359],[29.82146,-23.86489],[29.82237,-23.86462],[29.82358,-23.86364],[29.82816,-23.86382],[29.82962,-23.86334],[29.83367,-23.86542],[29.83522,-23.86427],[29.83564,-23.8632],[29.83687,-23.86278],[29.84025,-23.86309],[29.8441,-23.86283],[29.8457,-23.863],[29.84642,-23.86346],[29.84697,-23.86323],[29.84761,-23.86055],[29.84716,-23.85982],[29.84772,-23.85928],[29.85068,-23.86028],[29.8507,-23.86104],[29.85126,-23.86148],[29.85095,-23.86215],[29.85152,-23.86375],[29.85317,-23.8642],[29.85356,-23.86588],[29.85515,-23.86449],[29.8565,-23.86253],[29.8579,-23.85928],[29.85813,-23.85835],[29.85795,-23.85686],[29.85832,-23.85627],[29.8595,-23.8569],[29.85953,-23.85739],[29.86051,-23.85776],[29.86064,-23.85836],[29.86238,-23.86015],[29.8636,-23.86051],[29.86448,-23.86118],[29.86567,-23.86276],[29.86688,-23.86365],[29.86949,-23.86377],[29.87034,-23.86354],[29.87102,-23.86285],[29.87169,-23.8628],[29.87518,-23.86391],[29.87735,-23.86336],[29.879,-23.86373],[29.87956,-23.86358],[29.88084,-23.86241],[29.88294,-23.86255],[29.88475,-23.86224],[29.88652,-23.85512],[29.89731,-23.8622]]]}},{"type":"Feature","properties":{"ward":35,"id":"93504035"},"geometry":{"type":"Polygon","coordinates":[[[29.27175,-23.61684],[29.27634,-23.62232],[29.26655,-23.64272],[29.28686,-23.64451],[29.28702,-23.64566],[29.28858,-23.64793],[29.2881,-23.64954],[29.28962,-23.65096],[29.29057,-23.65395],[29.29054,-23.65482],[29.28967,-23.65678],[29.28973,-23.65828],[29.29093,-23.65963],[29.29208,-23.66227],[29.29246,-23.664],[29.29189,-23.66666],[29.29196,-23.66779],[29.29058,-23.66988],[29.28923,-23.67111],[29.28946,-23.67191],[29.29017,-23.67227],[29.29028,-23.67272],[29.2892,-23.67361],[29.28869,-23.67496],[29.28916,-23.6773],[29.28907,-23.67896],[29.28845,-23.67917],[29.28718,-23.67816],[29.28656,-23.679],[29.28669,-23.68044],[29.28766,-23.68141],[29.28658,-23.68351],[29.28682,-23.68547],[29.28794,-23.68749],[29.28751,-23.68936],[29.2865,-23.69119],[29.28725,-23.69265],[29.28707,-23.69445],[29.2851,-23.69907],[29.28278,-23.70155],[29.28065,-23.70456],[29.27818,-23.70711],[29.27719,-23.70991],[29.27742,-23.71244],[29.27631,-23.71446],[29.27455,-23.7156],[29.27416,-23.71649],[29.27407,-23.71816],[29.27469,-23.72246],[29.27412,-23.72521],[29.2713,-23.72697],[29.26952,-23.72925],[29.26803,-23.73291],[29.26799,-23.73521],[29.26696,-23.73604],[29.2642,-23.73728],[29.26069,-23.73771],[29.25932,-23.74007],[29.25934,-23.74257],[29.25798,-23.74416],[29.25617,-23.74557],[29.2545,-23.74636],[29.25056,-23.74698],[29.24974,-23.74743],[29.24904,-23.74913],[29.24827,-23.75014],[29.24521,-23.75282],[29.24444,-23.75473],[29.24476,-23.75607],[29.24445,-23.75741],[29.24307,-23.75849],[29.24039,-23.75975],[29.23867,-23.76166],[29.23797,-23.76614],[29.23655,-23.7675],[29.23497,-23.76827],[29.23375,-23.76807],[29.23119,-23.76866],[29.23039,-23.76995],[29.23015,-23.77181],[29.2297,-23.77259],[29.22607,-23.77646],[29.22506,-23.77506],[29.22494,-23.77204],[29.22394,-23.77145],[29.21619,-23.77095],[29.21558,-23.77127],[29.21373,-23.77074],[29.21118,-23.76942],[29.20786,-23.76851],[29.20589,-23.76851],[29.20413,-23.76784],[29.20158,-23.76763],[29.19865,-23.7654],[29.19157,-23.76435],[29.19002,-23.76376],[29.18684,-23.76086],[29.18772,-23.75487],[29.17429,-23.75647],[29.17525,-23.75314],[29.1764,-23.75145],[29.1764,-23.7504],[29.17797,-23.74738],[29.178,-23.74629],[29.17754,-23.74559],[29.17787,-23.74424],[29.17769,-23.74206],[29.17815,-23.7417],[29.17875,-23.73959],[29.17827,-23.73554],[29.17886,-23.73343],[29.17819,-23.73246],[29.17891,-23.73116],[29.17829,-23.73104],[29.17828,-23.73041],[29.17772,-23.72996],[29.17761,-23.72849],[29.17846,-23.72491],[29.17828,-23.72432],[29.17916,-23.72232],[29.17838,-23.71913],[29.17867,-23.71565],[29.17832,-23.70902],[29.1787,-23.70772],[29.17884,-23.7042],[29.17917,-23.7039],[29.17845,-23.70102],[29.17838,-23.69947],[29.17892,-23.69869],[29.17852,-23.69731],[29.17798,-23.69709],[29.17797,-23.69608],[29.17686,-23.69536],[29.17579,-23.69256],[29.17525,-23.69217],[29.175,-23.69087],[29.17617,-23.68981],[29.17656,-23.68813],[29.17574,-23.68656],[29.17681,-23.68356],[29.17806,-23.68225],[29.17925,-23.68199],[29.18032,-23.68089],[29.18072,-23.67655],[29.17913,-23.67288],[29.17775,-23.67132],[29.17739,-23.67041],[29.17616,-23.66911],[29.17428,-23.66863],[29.17291,-23.66617],[29.17112,-23.66387],[29.17035,-23.66216],[29.16893,-23.66181],[29.1675,-23.66011],[29.16739,-23.65879],[29.16629,-23.65647],[29.1647,-23.65494],[29.16408,-23.65377],[29.16317,-23.65342],[29.16357,-23.65068],[29.16314,-23.64927],[29.16419,-23.64738],[29.16379,-23.64588],[29.16479,-23.64354],[29.16588,-23.64248],[29.16552,-23.64017],[29.16707,-23.63696],[29.16695,-23.63583],[29.16677,-23.63526],[29.16632,-23.63503],[29.16603,-23.63342],[29.16616,-23.62964],[29.17032,-23.62806],[29.17758,-23.62605],[29.17684,-23.62417],[29.17741,-23.62079],[29.1784,-23.61871],[29.18144,-23.61418],[29.19106,-23.61708],[29.20027,-23.61628],[29.19939,-23.61487],[29.19615,-23.60635],[29.19639,-23.60431],[29.19691,-23.60311],[29.19675,-23.60191],[29.19531,-23.59983],[29.19323,-23.59499],[29.20547,-23.59071],[29.20235,-23.58375],[29.22655,-23.57999],[29.22297,-23.56208],[29.24461,-23.54646],[29.26502,-23.58409],[29.26467,-23.58561],[29.26513,-23.5873],[29.26519,-23.59091],[29.26285,-23.59807],[29.26254,-23.60217],[29.27175,-23.61684]]]}},{"type":"Feature","properties":{"ward":36,"id":"93504036"},"geometry":{"type":"Polygon","coordinates":[[[29.40189,-23.70888],[29.40423,-23.71579],[29.4057,-23.72384],[29.40809,-23.71512],[29.46443,-23.71148],[29.46845,-23.72628],[29.46756,-23.75186],[29.46594,-23.76349],[29.50076,-23.81136],[29.45714,-23.83005],[29.44351,-23.82985],[29.44247,-23.83269],[29.4429,-23.83448],[29.44269,-23.83549],[29.43934,-23.83738],[29.43824,-23.83848],[29.43823,-23.83904],[29.43914,-23.8408],[29.43932,-23.84432],[29.43748,-23.84849],[29.43582,-23.85113],[29.43583,-23.85185],[29.43664,-23.85366],[29.43664,-23.85514],[29.43504,-23.85615],[29.41131,-23.83448],[29.41081,-23.82964],[29.40962,-23.82356],[29.40864,-23.82599],[29.40796,-23.82645],[29.40695,-23.82647],[29.40647,-23.82594],[29.40418,-23.82533],[29.40051,-23.82564],[29.39945,-23.8085],[29.39604,-23.80528],[29.39378,-23.80623],[29.38542,-23.8087],[29.38345,-23.8053],[29.38191,-23.80379],[29.37991,-23.80055],[29.37456,-23.80854],[29.37135,-23.80626],[29.36959,-23.80409],[29.36803,-23.80151],[29.36874,-23.80117],[29.36795,-23.79966],[29.36973,-23.79835],[29.37093,-23.79854],[29.37146,-23.79829],[29.37137,-23.79808],[29.37453,-23.79734],[29.37321,-23.79442],[29.37143,-23.79499],[29.37096,-23.79402],[29.36974,-23.79275],[29.37013,-23.7925],[29.37095,-23.79278],[29.37435,-23.79272],[29.37537,-23.78789],[29.37485,-23.78487],[29.37793,-23.78361],[29.38035,-23.78304],[29.38111,-23.78145],[29.37883,-23.77799],[29.37666,-23.77387],[29.37301,-23.76868],[29.37247,-23.76705],[29.37222,-23.76331],[29.37064,-23.75993],[29.37144,-23.75941],[29.3702,-23.75677],[29.36846,-23.75525],[29.3676,-23.75406],[29.36794,-23.75298],[29.36196,-23.748],[29.35998,-23.74511],[29.35851,-23.74493],[29.35745,-23.74563],[29.35646,-23.7456],[29.35607,-23.74629],[29.35511,-23.74591],[29.35393,-23.74608],[29.35328,-23.7456],[29.35102,-23.7455],[29.35038,-23.74713],[29.34956,-23.74736],[29.34868,-23.7483],[29.34698,-23.74933],[29.34525,-23.74939],[29.34449,-23.75004],[29.34332,-23.75037],[29.3401,-23.75033],[29.3382,-23.75263],[29.33773,-23.7545],[29.33627,-23.75521],[29.33021,-23.7486],[29.33093,-23.74343],[29.32827,-23.73894],[29.32179,-23.73391],[29.32308,-23.73185],[29.32509,-23.73176],[29.33246,-23.72987],[29.32907,-23.71556],[29.32949,-23.71198],[29.33828,-23.71309],[29.33934,-23.71357],[29.34071,-23.71222],[29.34166,-23.71187],[29.34317,-23.70925],[29.34473,-23.70354],[29.34889,-23.70773],[29.35033,-23.70833],[29.35042,-23.70911],[29.353,-23.71133],[29.35399,-23.71276],[29.35653,-23.71377],[29.35707,-23.71328],[29.36898,-23.71143],[29.36915,-23.70897],[29.37014,-23.7093],[29.37266,-23.70941],[29.37436,-23.70911],[29.37636,-23.70963],[29.38912,-23.70697],[29.3956,-23.70495],[29.39652,-23.70446],[29.39775,-23.70315],[29.39883,-23.70268],[29.39965,-23.7026],[29.40189,-23.70888]]]}},{"type":"Feature","properties":{"ward":37,"id":"93504037"},"geometry":{"type":"Polygon","coordinates":[[[29.38038,-23.80115],[29.38191,-23.80379],[29.38345,-23.8053],[29.38542,-23.8087],[29.39378,-23.80623],[29.39604,-23.80528],[29.39945,-23.8085],[29.40051,-23.82564],[29.40418,-23.82533],[29.40647,-23.82594],[29.40695,-23.82647],[29.40796,-23.82645],[29.40864,-23.82599],[29.40962,-23.82356],[29.41081,-23.82964],[29.41131,-23.83448],[29.41168,-23.83482],[29.40846,-23.84764],[29.40283,-23.84146],[29.40003,-23.84079],[29.39881,-23.8466],[29.39769,-23.846],[29.39714,-23.8463],[29.39576,-23.84442],[29.39541,-23.84462],[29.39367,-23.84249],[29.39273,-23.84311],[29.39235,-23.84259],[29.39279,-23.84231],[29.39137,-23.84036],[29.38951,-23.84151],[29.38829,-23.83978],[29.38591,-23.83898],[29.38567,-23.83947],[29.3826,-23.84136],[29.37905,-23.84138],[29.37951,-23.8321],[29.38249,-23.83106],[29.38522,-23.83075],[29.38652,-23.82963],[29.38832,-23.82946],[29.3875,-23.82601],[29.38863,-23.82552],[29.38495,-23.82042],[29.38442,-23.82044],[29.38198,-23.81925],[29.37824,-23.81631],[29.37721,-23.81667],[29.37631,-23.81452],[29.37442,-23.81481],[29.37398,-23.81137],[29.37296,-23.81152],[29.37318,-23.81116],[29.37055,-23.80915],[29.37252,-23.80721],[29.37456,-23.80854],[29.37928,-23.80124],[29.37991,-23.80055],[29.38038,-23.80115]]]}},{"type":"Feature","properties":{"ward":38,"id":"93504038"},"geometry":{"type":"Polygon","coordinates":[[[29.4326,-23.62465],[29.42435,-23.65761],[29.43466,-23.69362],[29.43455,-23.69617],[29.44593,-23.71273],[29.40809,-23.71512],[29.4057,-23.72384],[29.40423,-23.71579],[29.39965,-23.7026],[29.39775,-23.70315],[29.39652,-23.70446],[29.3956,-23.70495],[29.38912,-23.70697],[29.38051,-23.70895],[29.37587,-23.70966],[29.37436,-23.70911],[29.37266,-23.70941],[29.37014,-23.7093],[29.36915,-23.70897],[29.36943,-23.70791],[29.36906,-23.70707],[29.3697,-23.70653],[29.37035,-23.70457],[29.37219,-23.70228],[29.37396,-23.69906],[29.37365,-23.69624],[29.37267,-23.69327],[29.37348,-23.68633],[29.37273,-23.68473],[29.37275,-23.6822],[29.37434,-23.68039],[29.37512,-23.67818],[29.37504,-23.67761],[29.3735,-23.67528],[29.37344,-23.67341],[29.3723,-23.67051],[29.37176,-23.66996],[29.37134,-23.66789],[29.37146,-23.66723],[29.37246,-23.66629],[29.37215,-23.66535],[29.37134,-23.66451],[29.37146,-23.6641],[29.37246,-23.66324],[29.37312,-23.66052],[29.37394,-23.66008],[29.37329,-23.65844],[29.37115,-23.65514],[29.37111,-23.65462],[29.37149,-23.65291],[29.37137,-23.64969],[29.37195,-23.64931],[29.37221,-23.64865],[29.37199,-23.64686],[29.37132,-23.64658],[29.3709,-23.64544],[29.3714,-23.6454],[29.37161,-23.64503],[29.37141,-23.64213],[29.3726,-23.64099],[29.37206,-23.64051],[29.37231,-23.6396],[29.3717,-23.63813],[29.3717,-23.63768],[29.37289,-23.63589],[29.37227,-23.63459],[29.41372,-23.62113],[29.4326,-23.62465]]]}},{"type":"Feature","properties":{"ward":39,"id":"93504039"},"geometry":{"type":"Polygon","coordinates":[[[29.4705,-23.87782],[29.47116,-23.88031],[29.47312,-23.87939],[29.47597,-23.89101],[29.47188,-23.89283],[29.47296,-23.89416],[29.46868,-23.89716],[29.46819,-23.89661],[29.46766,-23.89697],[29.4692,-23.90359],[29.46412,-23.90458],[29.46464,-23.9068],[29.44688,-23.91032],[29.44586,-23.90591],[29.44317,-23.90643],[29.44248,-23.90618],[29.44204,-23.90579],[29.44075,-23.90197],[29.44481,-23.90113],[29.44573,-23.90003],[29.44477,-23.89125],[29.44516,-23.89016],[29.44765,-23.88781],[29.4496,-23.88542],[29.45584,-23.88027],[29.45963,-23.87957],[29.4701,-23.87639],[29.4705,-23.87782]]]}},{"type":"Feature","properties":{"ward":40,"id":"93504040"},"geometry":{"type":"Polygon","coordinates":[[[29.14603,-23.87075],[29.15022,-23.87094],[29.15369,-23.86802],[29.15335,-23.86705],[29.21382,-23.88444],[29.17966,-23.94412],[29.18179,-23.97689],[29.15922,-23.98383],[29.14413,-23.98898],[29.1363,-23.99242],[29.12004,-23.99646],[29.09343,-23.98465],[29.07386,-23.9431],[29.06733,-23.93463],[29.06867,-23.93443],[29.07014,-23.93547],[29.07107,-23.93453],[29.07191,-23.93426],[29.07463,-23.9352],[29.07575,-23.93489],[29.07622,-23.9338],[29.07697,-23.93357],[29.07883,-23.93428],[29.07905,-23.93466],[29.08039,-23.93492],[29.08139,-23.93564],[29.08395,-23.93589],[29.08587,-23.93461],[29.0866,-23.93363],[29.08799,-23.93342],[29.08883,-23.93224],[29.09113,-23.93156],[29.09239,-23.93201],[29.09355,-23.93083],[29.09504,-23.93013],[29.09596,-23.93033],[29.09707,-23.92983],[29.09864,-23.92832],[29.10087,-23.92741],[29.10126,-23.92652],[29.10103,-23.92573],[29.10326,-23.92351],[29.10422,-23.92333],[29.10575,-23.92214],[29.10486,-23.92106],[29.10379,-23.91741],[29.10275,-23.91609],[29.1026,-23.91499],[29.10167,-23.91396],[29.10075,-23.91061],[29.09883,-23.90728],[29.09791,-23.904],[29.09821,-23.90336],[29.09732,-23.90284],[29.09717,-23.90173],[29.09609,-23.90066],[29.09628,-23.89947],[29.0957,-23.89895],[29.09567,-23.89804],[29.09515,-23.89776],[29.09542,-23.8972],[29.09492,-23.89503],[29.09515,-23.89428],[29.09472,-23.89379],[29.09498,-23.892],[29.09622,-23.89184],[29.09696,-23.89247],[29.10011,-23.8933],[29.10125,-23.89269],[29.10247,-23.89006],[29.10567,-23.88674],[29.11217,-23.88477],[29.11601,-23.88397],[29.1168,-23.88791],[29.11774,-23.89008],[29.11861,-23.89056],[29.1187,-23.89033],[29.11965,-23.89058],[29.12211,-23.89247],[29.12228,-23.89301],[29.12436,-23.89453],[29.12496,-23.89542],[29.12823,-23.89721],[29.13252,-23.89151],[29.13058,-23.88405],[29.12821,-23.87741],[29.13212,-23.87644],[29.13277,-23.87588],[29.13652,-23.87429],[29.13758,-23.86878],[29.13855,-23.86754],[29.14038,-23.86654],[29.14057,-23.86598],[29.14144,-23.86752],[29.14285,-23.86906],[29.14603,-23.87075]]]}},{"type":"Feature","properties":{"ward":41,"id":"93504041"},"geometry":{"type":"Polygon","coordinates":[[[28.99616,-23.77243],[28.99678,-23.77263],[29.00411,-23.77135],[29.00532,-23.77302],[29.00594,-23.7734],[29.00854,-23.77364],[29.01335,-23.77465],[29.01696,-23.77577],[29.02244,-23.77872],[29.02302,-23.77946],[29.02302,-23.78],[29.02057,-23.78171],[29.01941,-23.78327],[29.01611,-23.78633],[29.01568,-23.78734],[29.02178,-23.78886],[29.02822,-23.79126],[29.03203,-23.79173],[29.0347,-23.79293],[29.03676,-23.7925],[29.03758,-23.79367],[29.03828,-23.79386],[29.03971,-23.79518],[29.04364,-23.79621],[29.0443,-23.79696],[29.04433,-23.79746],[29.04304,-23.8001],[29.04245,-23.80274],[29.04272,-23.80344],[29.04686,-23.80488],[29.04868,-23.80585],[29.05094,-23.80641],[29.05067,-23.80794],[29.04914,-23.80955],[29.04894,-23.81102],[29.04829,-23.81163],[29.04879,-23.81202],[29.04868,-23.81263],[29.04906,-23.81313],[29.04873,-23.81395],[29.05595,-23.81698],[29.05821,-23.81725],[29.08628,-23.78873],[29.09076,-23.80025],[29.11613,-23.80709],[29.12458,-23.81096],[29.12925,-23.80657],[29.13048,-23.8058],[29.13243,-23.80524],[29.13858,-23.80578],[29.13823,-23.80422],[29.13934,-23.80474],[29.14106,-23.80478],[29.14217,-23.8058],[29.14447,-23.80699],[29.14669,-23.80922],[29.14826,-23.80944],[29.14908,-23.80919],[29.15137,-23.80996],[29.15997,-23.80988],[29.16355,-23.81065],[29.16585,-23.81155],[29.168,-23.81169],[29.1708,-23.81249],[29.17239,-23.8138],[29.17183,-23.81485],[29.17255,-23.82722],[29.1874,-23.8159],[29.19183,-23.80748],[29.21062,-23.80836],[29.21475,-23.80968],[29.21241,-23.81253],[29.20972,-23.81377],[29.20822,-23.8169],[29.20709,-23.81816],[29.20447,-23.81978],[29.20359,-23.82104],[29.20271,-23.82379],[29.20167,-23.82538],[29.19995,-23.82717],[29.19996,-23.82816],[29.19815,-23.82919],[29.19771,-23.83142],[29.19626,-23.83305],[29.19589,-23.83532],[29.19458,-23.83713],[29.19464,-23.8382],[29.19521,-23.83937],[29.19491,-23.84045],[29.19456,-23.84103],[29.19352,-23.84165],[29.19283,-23.84439],[29.19036,-23.84712],[29.1902,-23.84836],[29.19047,-23.84963],[29.18955,-23.8516],[29.18955,-23.85372],[29.19005,-23.85604],[29.18947,-23.85878],[29.18862,-23.86047],[29.18361,-23.86352],[29.18264,-23.86526],[29.18037,-23.86634],[29.18025,-23.86807],[29.17813,-23.8695],[29.17747,-23.87054],[29.17649,-23.87351],[29.15335,-23.86705],[29.15369,-23.86802],[29.15022,-23.87094],[29.14603,-23.87075],[29.14285,-23.86906],[29.14144,-23.86752],[29.14057,-23.86598],[29.14038,-23.86654],[29.13855,-23.86754],[29.13758,-23.86878],[29.13652,-23.87429],[29.13277,-23.87588],[29.13212,-23.87644],[29.12821,-23.87741],[29.13058,-23.88405],[29.13252,-23.89151],[29.12823,-23.89721],[29.12496,-23.89542],[29.12436,-23.89453],[29.12228,-23.89301],[29.12211,-23.89247],[29.11965,-23.89058],[29.1187,-23.89033],[29.11861,-23.89056],[29.11774,-23.89008],[29.1168,-23.88791],[29.11601,-23.88397],[29.11217,-23.88477],[29.10567,-23.88674],[29.10247,-23.89006],[29.10125,-23.89269],[29.10011,-23.8933],[29.09696,-23.89247],[29.09622,-23.89184],[29.09498,-23.892],[29.09472,-23.89379],[29.09515,-23.89428],[29.09492,-23.89503],[29.09542,-23.8972],[29.09515,-23.89776],[29.09567,-23.89804],[29.0957,-23.89895],[29.09628,-23.89947],[29.09609,-23.90066],[29.09717,-23.90173],[29.09732,-23.90284],[29.09821,-23.90336],[29.09791,-23.904],[29.09883,-23.90728],[29.10075,-23.91061],[29.10167,-23.91396],[29.1026,-23.91499],[29.10275,-23.91609],[29.10379,-23.91741],[29.10486,-23.92106],[29.10575,-23.92214],[29.10422,-23.92333],[29.10326,-23.92351],[29.10103,-23.92573],[29.10126,-23.92652],[29.10087,-23.92741],[29.09864,-23.92832],[29.09707,-23.92983],[29.09596,-23.93033],[29.09504,-23.93013],[29.09355,-23.93083],[29.09239,-23.93201],[29.09113,-23.93156],[29.08883,-23.93224],[29.08799,-23.93342],[29.0866,-23.93363],[29.08587,-23.93461],[29.08395,-23.93589],[29.08139,-23.93564],[29.08039,-23.93492],[29.07905,-23.93466],[29.07883,-23.93428],[29.07697,-23.93357],[29.07622,-23.9338],[29.07548,-23.93507],[29.07419,-23.93519],[29.0717,-23.93427],[29.06997,-23.93545],[29.06867,-23.93443],[29.06733,-23.93463],[29.04493,-23.90557],[29.00554,-23.89821],[28.98211,-23.8778],[28.99844,-23.84116],[28.97894,-23.83252],[28.98364,-23.83217],[28.98712,-23.83139],[28.98948,-23.8316],[28.98924,-23.82441],[28.98914,-23.82401],[28.98626,-23.82129],[28.98566,-23.82026],[28.98696,-23.81999],[28.9864,-23.81888],[28.98611,-23.81669],[28.98553,-23.81581],[28.98568,-23.81352],[28.98522,-23.81117],[28.98393,-23.8093],[28.98389,-23.80818],[28.98457,-23.80683],[28.98603,-23.80615],[28.98615,-23.80565],[28.98514,-23.80462],[28.98564,-23.80244],[28.98685,-23.80147],[28.98693,-23.7998],[28.98457,-23.79891],[28.98617,-23.79436],[28.98779,-23.77615],[28.98978,-23.76967],[28.99258,-23.77181],[28.99616,-23.77243]]]}},{"type":"Feature","properties":{"ward":42,"id":"93504042"},"geometry":{"type":"Polygon","coordinates":[[[29.08833,-23.679],[29.08929,-23.67897],[29.08949,-23.67843],[29.09023,-23.6784],[29.09093,-23.67953],[29.09346,-23.68113],[29.09462,-23.6814],[29.09632,-23.68243],[29.09829,-23.6854],[29.10059,-23.68693],[29.10165,-23.68696],[29.10548,-23.68893],[29.11098,-23.69016],[29.11338,-23.69166],[29.11641,-23.69302],[29.12045,-23.69355],[29.12393,-23.69263],[29.12539,-23.69314],[29.12738,-23.69322],[29.12952,-23.69496],[29.13035,-23.69498],[29.13103,-23.69598],[29.13206,-23.69654],[29.13328,-23.69705],[29.13372,-23.69656],[29.13427,-23.69664],[29.13491,-23.69713],[29.13526,-23.69795],[29.13797,-23.69976],[29.13911,-23.70153],[29.14101,-23.7023],[29.14167,-23.70306],[29.14244,-23.70317],[29.14411,-23.70444],[29.14594,-23.70744],[29.14615,-23.71053],[29.1467,-23.71214],[29.15125,-23.71866],[29.15376,-23.72096],[29.15481,-23.72663],[29.15723,-23.73057],[29.1587,-23.73184],[29.16002,-23.73382],[29.16308,-23.73569],[29.16629,-23.73582],[29.17119,-23.73738],[29.17254,-23.73683],[29.17306,-23.73596],[29.17654,-23.73577],[29.17834,-23.73484],[29.17875,-23.73959],[29.17815,-23.7417],[29.17769,-23.74206],[29.17787,-23.74424],[29.17754,-23.74559],[29.178,-23.74629],[29.17797,-23.74738],[29.1764,-23.7504],[29.1764,-23.75145],[29.17525,-23.75314],[29.17429,-23.75647],[29.18772,-23.75487],[29.18242,-23.79073],[29.19755,-23.7966],[29.1874,-23.8159],[29.17255,-23.82722],[29.17183,-23.81485],[29.17239,-23.8138],[29.1708,-23.81249],[29.168,-23.81169],[29.16585,-23.81155],[29.16355,-23.81065],[29.15997,-23.80988],[29.15137,-23.80996],[29.14908,-23.80919],[29.14826,-23.80944],[29.14669,-23.80922],[29.14447,-23.80699],[29.14217,-23.8058],[29.14106,-23.80478],[29.13934,-23.80474],[29.13823,-23.80422],[29.13858,-23.80578],[29.13243,-23.80524],[29.13048,-23.8058],[29.12925,-23.80657],[29.12458,-23.81096],[29.11613,-23.80709],[29.09076,-23.80025],[29.08628,-23.78873],[29.05821,-23.81725],[29.05516,-23.81677],[29.04873,-23.81395],[29.04906,-23.81313],[29.04868,-23.81263],[29.04879,-23.81202],[29.04829,-23.81163],[29.04894,-23.81102],[29.04914,-23.80955],[29.05067,-23.80794],[29.05094,-23.80641],[29.04868,-23.80585],[29.04686,-23.80488],[29.04272,-23.80344],[29.04248,-23.80303],[29.04304,-23.8001],[29.04424,-23.79793],[29.0443,-23.79696],[29.04364,-23.79621],[29.04274,-23.7958],[29.03971,-23.79518],[29.03828,-23.79386],[29.03758,-23.79367],[29.03676,-23.7925],[29.03891,-23.7903],[29.04154,-23.789],[29.04288,-23.78716],[29.04606,-23.78435],[29.04667,-23.78282],[29.04674,-23.78038],[29.04742,-23.77845],[29.04976,-23.77828],[29.05121,-23.77911],[29.05158,-23.77894],[29.05156,-23.77821],[29.05261,-23.77797],[29.05283,-23.77859],[29.05393,-23.7783],[29.05463,-23.77729],[29.05454,-23.776],[29.05474,-23.77569],[29.05534,-23.77585],[29.05541,-23.77516],[29.05622,-23.75875],[29.05872,-23.75604],[29.05936,-23.75304],[29.05945,-23.74935],[29.0574,-23.74606],[29.0486,-23.74127],[29.05408,-23.73538],[29.05502,-23.73605],[29.05708,-23.73646],[29.05854,-23.73841],[29.05932,-23.73878],[29.06279,-23.73833],[29.06436,-23.73754],[29.0703,-23.7382],[29.07262,-23.7395],[29.06706,-23.7308],[29.07003,-23.72994],[29.05917,-23.70835],[29.0536,-23.71013],[29.05272,-23.70949],[29.05097,-23.70935],[29.04935,-23.71041],[29.04748,-23.71037],[29.04482,-23.7112],[29.04368,-23.71124],[29.04191,-23.71047],[29.04136,-23.71073],[29.04124,-23.70997],[29.0404,-23.70927],[29.04005,-23.70779],[29.03819,-23.706],[29.03629,-23.70312],[29.03638,-23.69929],[29.03483,-23.69846],[29.03567,-23.69479],[29.03486,-23.69361],[29.03646,-23.69245],[29.03799,-23.69257],[29.04098,-23.69073],[29.04268,-23.68885],[29.04658,-23.67814],[29.04781,-23.67804],[29.04946,-23.67864],[29.05239,-23.67869],[29.05518,-23.67961],[29.07436,-23.69481],[29.08672,-23.67738],[29.08776,-23.67873],[29.08833,-23.679]]]}},{"type":"Feature","properties":{"ward":43,"id":"93504043"},"geometry":{"type":"Polygon","coordinates":[[[28.94277,-23.67542],[28.96309,-23.6885],[28.96336,-23.68805],[28.96441,-23.69529],[28.967,-23.6961],[28.96925,-23.69613],[28.96991,-23.69649],[28.97099,-23.69779],[28.97108,-23.69872],[28.97187,-23.69992],[28.97502,-23.70344],[28.97698,-23.7041],[28.98043,-23.70383],[28.98248,-23.70332],[28.98635,-23.70389],[28.99068,-23.70635],[28.99624,-23.70813],[28.99772,-23.71044],[29.00096,-23.71408],[29.00322,-23.71633],[29.00442,-23.71707],[29.01153,-23.71354],[29.01209,-23.71114],[29.01344,-23.70888],[29.01521,-23.70485],[29.01532,-23.70267],[29.01653,-23.70186],[29.01761,-23.70175],[29.02033,-23.70385],[29.02232,-23.70461],[29.02603,-23.70372],[29.02918,-23.70151],[29.03432,-23.69279],[29.03455,-23.69186],[29.03639,-23.69221],[29.03645,-23.69268],[29.03539,-23.69305],[29.03486,-23.69361],[29.03567,-23.69479],[29.03483,-23.69846],[29.03638,-23.69929],[29.03629,-23.70312],[29.03819,-23.706],[29.04005,-23.70779],[29.0404,-23.70927],[29.04124,-23.70997],[29.04136,-23.71073],[29.04191,-23.71047],[29.04368,-23.71124],[29.04482,-23.7112],[29.04748,-23.71037],[29.04935,-23.71041],[29.05097,-23.70935],[29.05272,-23.70949],[29.0536,-23.71013],[29.05917,-23.70835],[29.07003,-23.72994],[29.06706,-23.7308],[29.07262,-23.7395],[29.0703,-23.7382],[29.06436,-23.73754],[29.06279,-23.73833],[29.05932,-23.73878],[29.05854,-23.73841],[29.05708,-23.73646],[29.05502,-23.73605],[29.05408,-23.73538],[29.0486,-23.74127],[29.0574,-23.74606],[29.05959,-23.74993],[29.05901,-23.75546],[29.05673,-23.75791],[29.05613,-23.75924],[29.05535,-23.7758],[29.05474,-23.77569],[29.05454,-23.776],[29.05463,-23.77729],[29.05393,-23.7783],[29.05283,-23.77859],[29.05261,-23.77797],[29.05156,-23.77821],[29.05158,-23.77894],[29.05095,-23.77913],[29.04976,-23.77828],[29.04742,-23.77845],[29.04674,-23.78038],[29.04667,-23.78282],[29.04606,-23.78435],[29.04288,-23.78716],[29.04154,-23.789],[29.03891,-23.7903],[29.03676,-23.7925],[29.0347,-23.79293],[29.03203,-23.79173],[29.02822,-23.79126],[29.02178,-23.78886],[29.01568,-23.78734],[29.01611,-23.78633],[29.01941,-23.78327],[29.02057,-23.78171],[29.02302,-23.78],[29.02302,-23.77946],[29.02244,-23.77872],[29.01824,-23.77628],[29.01335,-23.77465],[29.00854,-23.77364],[29.00594,-23.7734],[29.00532,-23.77302],[29.00411,-23.77135],[28.99678,-23.77263],[28.99511,-23.77208],[28.99258,-23.77181],[28.98978,-23.76967],[28.98779,-23.77615],[28.98617,-23.79436],[28.98457,-23.79891],[28.98693,-23.7998],[28.98685,-23.80147],[28.98564,-23.80244],[28.98514,-23.80462],[28.98615,-23.80565],[28.98603,-23.80615],[28.98457,-23.80683],[28.98389,-23.80818],[28.98393,-23.8093],[28.98522,-23.81117],[28.98568,-23.81352],[28.98553,-23.81581],[28.98611,-23.81669],[28.9864,-23.81888],[28.98696,-23.81999],[28.98566,-23.82026],[28.98626,-23.82129],[28.98914,-23.82401],[28.98924,-23.82441],[28.98948,-23.8316],[28.98712,-23.83139],[28.98364,-23.83217],[28.97894,-23.83252],[28.96598,-23.8268],[28.92139,-23.81122],[28.9054,-23.85864],[28.87752,-23.86448],[28.8432,-23.83398],[28.84938,-23.82992],[28.85486,-23.80682],[28.84821,-23.79011],[28.88435,-23.78469],[28.85781,-23.75723],[28.8694,-23.7259],[28.87879,-23.69719],[28.88165,-23.69522],[28.90627,-23.68138],[28.92774,-23.66988],[28.94277,-23.67542]]]}},{"type":"Feature","properties":{"ward":44,"id":"93504044"},"geometry":{"type":"Polygon","coordinates":[[[29.08165,-23.60505],[29.10359,-23.65382],[29.07436,-23.69481],[29.05518,-23.67961],[29.05239,-23.67869],[29.04946,-23.67864],[29.04781,-23.67804],[29.04658,-23.67814],[29.04268,-23.68885],[29.04166,-23.68977],[29.04152,-23.69026],[29.03799,-23.69257],[29.03705,-23.69265],[29.03602,-23.69206],[29.03455,-23.69186],[29.03432,-23.69279],[29.02918,-23.70151],[29.02603,-23.70372],[29.02232,-23.70461],[29.02033,-23.70385],[29.01761,-23.70175],[29.01653,-23.70186],[29.01532,-23.70267],[29.01521,-23.70485],[29.01344,-23.70888],[29.01209,-23.71114],[29.01153,-23.71354],[29.00442,-23.71707],[29.00322,-23.71633],[29.00096,-23.71408],[28.99772,-23.71044],[28.99624,-23.70813],[28.99068,-23.70635],[28.98635,-23.70389],[28.98248,-23.70332],[28.98043,-23.70383],[28.97698,-23.7041],[28.97502,-23.70344],[28.97187,-23.69992],[28.97108,-23.69872],[28.97099,-23.69779],[28.96991,-23.69649],[28.96925,-23.69613],[28.967,-23.6961],[28.96441,-23.69529],[28.96336,-23.68805],[28.96309,-23.6885],[28.94277,-23.67542],[28.92774,-23.66988],[28.90627,-23.68138],[28.88165,-23.69522],[28.87879,-23.69719],[28.87552,-23.64662],[28.92017,-23.61664],[28.93142,-23.59828],[28.96925,-23.59783],[28.98242,-23.6109],[29.0102,-23.62045],[29.02636,-23.59262],[29.03927,-23.5803],[29.05249,-23.5858],[29.04332,-23.5961],[29.08165,-23.60505]]]}},{"type":"Feature","properties":{"ward":45,"id":"93504045"},"geometry":{"type":"Polygon","coordinates":[[[29.19798,-23.57702],[29.19897,-23.58428],[29.20235,-23.58375],[29.20547,-23.59071],[29.19323,-23.59499],[29.19531,-23.59983],[29.19675,-23.60191],[29.19691,-23.60311],[29.19639,-23.60431],[29.19615,-23.60635],[29.19939,-23.61487],[29.20027,-23.61628],[29.19106,-23.61708],[29.18144,-23.61418],[29.1784,-23.61871],[29.17741,-23.62079],[29.17684,-23.62417],[29.17758,-23.62605],[29.17032,-23.62806],[29.16616,-23.62964],[29.16608,-23.63008],[29.16603,-23.63342],[29.16632,-23.63503],[29.16677,-23.63526],[29.16695,-23.63583],[29.16707,-23.63696],[29.16552,-23.64017],[29.16588,-23.64248],[29.16479,-23.64354],[29.16379,-23.64588],[29.16419,-23.64738],[29.16314,-23.64927],[29.16357,-23.65068],[29.16317,-23.65342],[29.16408,-23.65377],[29.1647,-23.65494],[29.16629,-23.65647],[29.16739,-23.65879],[29.1675,-23.66011],[29.16893,-23.66181],[29.17035,-23.66216],[29.17112,-23.66387],[29.17291,-23.66617],[29.17428,-23.66863],[29.17616,-23.66911],[29.17739,-23.67041],[29.17775,-23.67132],[29.17913,-23.67288],[29.18072,-23.67655],[29.18032,-23.68089],[29.17925,-23.68199],[29.17806,-23.68225],[29.17681,-23.68356],[29.17574,-23.68656],[29.17656,-23.68813],[29.17617,-23.68981],[29.175,-23.69087],[29.17525,-23.69217],[29.17579,-23.69256],[29.17686,-23.69536],[29.17797,-23.69608],[29.17798,-23.69709],[29.17852,-23.69731],[29.17892,-23.69869],[29.17838,-23.69947],[29.17845,-23.70102],[29.17917,-23.7039],[29.17884,-23.7042],[29.1787,-23.70772],[29.17832,-23.70902],[29.17867,-23.71565],[29.17838,-23.71913],[29.17916,-23.72232],[29.17828,-23.72432],[29.17846,-23.72491],[29.17761,-23.72849],[29.17772,-23.72996],[29.17828,-23.73041],[29.17829,-23.73104],[29.17891,-23.73116],[29.17819,-23.73246],[29.17886,-23.73343],[29.17809,-23.73519],[29.17654,-23.73577],[29.17346,-23.73582],[29.17239,-23.73693],[29.17119,-23.73738],[29.16629,-23.73582],[29.16308,-23.73569],[29.16002,-23.73382],[29.1587,-23.73184],[29.15723,-23.73057],[29.15481,-23.72663],[29.15376,-23.72096],[29.15125,-23.71866],[29.1467,-23.71214],[29.14615,-23.71053],[29.14594,-23.70744],[29.14411,-23.70444],[29.14244,-23.70317],[29.14167,-23.70306],[29.14101,-23.7023],[29.13911,-23.70153],[29.13797,-23.69976],[29.13526,-23.69795],[29.13456,-23.69683],[29.13372,-23.69656],[29.13328,-23.69705],[29.13206,-23.69654],[29.13103,-23.69598],[29.13035,-23.69498],[29.12952,-23.69496],[29.12738,-23.69322],[29.12539,-23.69314],[29.12393,-23.69263],[29.12045,-23.69355],[29.11641,-23.69302],[29.11338,-23.69166],[29.11098,-23.69016],[29.10548,-23.68893],[29.10165,-23.68696],[29.10059,-23.68693],[29.09829,-23.6854],[29.09632,-23.68243],[29.09462,-23.6814],[29.09346,-23.68113],[29.09093,-23.67953],[29.09023,-23.6784],[29.08949,-23.67843],[29.08929,-23.67897],[29.08886,-23.67903],[29.08776,-23.67873],[29.08672,-23.67738],[29.10359,-23.65382],[29.08165,-23.60505],[29.04332,-23.5961],[29.05249,-23.5858],[29.03927,-23.5803],[29.06648,-23.55434],[29.078,-23.5574],[29.10373,-23.56222],[29.14985,-23.56779],[29.19798,-23.57702]]]}}]}